<?xml version="1.0" encoding="utf-8"?><gpx creator="Garmin Desktop App" version="1.1" xsi:schemaLocation="http://www.topografix.com/GPX/1/1 http://www.topografix.com/GPX/1/1/gpx.xsd http://www.garmin.com/xmlschemas/WaypointExtension/v1 http://www8.garmin.com/xmlschemas/WaypointExtensionv1.xsd http://www.garmin.com/xmlschemas/TrackPointExtension/v1 http://www.garmin.com/xmlschemas/TrackPointExtensionv1.xsd http://www.garmin.com/xmlschemas/GpxExtensions/v3 http://www8.garmin.com/xmlschemas/GpxExtensionsv3.xsd http://www.garmin.com/xmlschemas/ActivityExtension/v1 http://www8.garmin.com/xmlschemas/ActivityExtensionv1.xsd http://www.garmin.com/xmlschemas/AdventuresExtensions/v1 http://www8.garmin.com/xmlschemas/AdventuresExtensionv1.xsd http://www.garmin.com/xmlschemas/PressureExtension/v1 http://www.garmin.com/xmlschemas/PressureExtensionv1.xsd http://www.garmin.com/xmlschemas/TripExtensions/v1 http://www.garmin.com/xmlschemas/TripExtensionsv1.xsd http://www.garmin.com/xmlschemas/TripMetaDataExtensions/v1 http://www.garmin.com/xmlschemas/TripMetaDataExtensionsv1.xsd http://www.garmin.com/xmlschemas/ViaPointTransportationModeExtensions/v1 http://www.garmin.com/xmlschemas/ViaPointTransportationModeExtensionsv1.xsd http://www.garmin.com/xmlschemas/CreationTimeExtension/v1 http://www.garmin.com/xmlschemas/CreationTimeExtensionsv1.xsd http://www.garmin.com/xmlschemas/AccelerationExtension/v1 http://www.garmin.com/xmlschemas/AccelerationExtensionv1.xsd http://www.garmin.com/xmlschemas/PowerExtension/v1 http://www.garmin.com/xmlschemas/PowerExtensionv1.xsd http://www.garmin.com/xmlschemas/VideoExtension/v1 http://www.garmin.com/xmlschemas/VideoExtensionv1.xsd" xmlns="http://www.topografix.com/GPX/1/1" xmlns:xsi="http://www.w3.org/2001/XMLSchema-instance" xmlns:wptx1="http://www.garmin.com/xmlschemas/WaypointExtension/v1" xmlns:gpxtrx="http://www.garmin.com/xmlschemas/GpxExtensions/v3" xmlns:gpxtpx="http://www.garmin.com/xmlschemas/TrackPointExtension/v1" xmlns:gpxx="http://www.garmin.com/xmlschemas/GpxExtensions/v3" xmlns:trp="http://www.garmin.com/xmlschemas/TripExtensions/v1" xmlns:adv="http://www.garmin.com/xmlschemas/AdventuresExtensions/v1" xmlns:prs="http://www.garmin.com/xmlschemas/PressureExtension/v1" xmlns:tmd="http://www.garmin.com/xmlschemas/TripMetaDataExtensions/v1" xmlns:vptm="http://www.garmin.com/xmlschemas/ViaPointTransportationModeExtensions/v1" xmlns:ctx="http://www.garmin.com/xmlschemas/CreationTimeExtension/v1" xmlns:gpxacc="http://www.garmin.com/xmlschemas/AccelerationExtension/v1" xmlns:gpxpx="http://www.garmin.com/xmlschemas/PowerExtension/v1" xmlns:vidx1="http://www.garmin.com/xmlschemas/VideoExtension/v1">

  <metadata>
    <link href="http://www.garmin.com">
      <text>Garmin International</text>
    </link>
    <time>2024-10-27T14:54:38Z</time>
    <bounds maxlat="49.674582788720727" maxlon="5.530686322599649" minlat="49.6408411860466" minlon="5.458438256755471" />
  </metadata>

  <trk>
    <name>Hivernale 2025 VTT 21.2 Km D+ 357 m</name>
    <extensions>
      <gpxx:TrackExtension>
        <gpxx:DisplayColor>DarkGray</gpxx:DisplayColor>
      </gpxx:TrackExtension>
    </extensions>
    <trkseg>
      <trkpt lat="49.666872778907418" lon="5.497537152841687">
        <ele>366.078125</ele>
      </trkpt>
      <trkpt lat="49.666734477505088" lon="5.497457943856716">
        <ele>365.7421875</ele>
      </trkpt>
      <trkpt lat="49.666690472513437" lon="5.497428271919489">
        <ele>365.57421875</ele>
      </trkpt>
      <trkpt lat="49.666809914633632" lon="5.497111519798636">
        <ele>365.29296875</ele>
      </trkpt>
      <trkpt lat="49.66686649248004" lon="5.496933404356241">
        <ele>365.15234375</ele>
      </trkpt>
      <trkpt lat="49.666942013427615" lon="5.496844304725528">
        <ele>365.24609375</ele>
      </trkpt>
      <trkpt lat="49.667149465531111" lon="5.497032310813665">
        <ele>366.1875</ele>
      </trkpt>
      <trkpt lat="49.667262705042958" lon="5.497131301090121">
        <ele>366.6796875</ele>
      </trkpt>
      <trkpt lat="49.667250132188201" lon="5.49724018201232">
        <ele>366.76953125</ele>
      </trkpt>
      <trkpt lat="49.667495386675" lon="5.49716105684638">
        <ele>367.74609375</ele>
      </trkpt>
      <trkpt lat="49.667935520410538" lon="5.49735895358026">
        <ele>371.12109375</ele>
      </trkpt>
      <trkpt lat="49.668369367718697" lon="5.497537152841687">
        <ele>375.23828125</ele>
      </trkpt>
      <trkpt lat="49.668539185076952" lon="5.497616361826658">
        <ele>376.62109375</ele>
      </trkpt>
      <trkpt lat="49.668709002435207" lon="5.498121120035648">
        <ele>378.94921875</ele>
      </trkpt>
      <trkpt lat="49.668866163119674" lon="5.498220110312104">
        <ele>380.45703125</ele>
      </trkpt>
      <trkpt lat="49.668897595256567" lon="5.498556727543473">
        <ele>379.8046875</ele>
      </trkpt>
      <trkpt lat="49.668922740966082" lon="5.498853614553809">
        <ele>378.296875</ele>
      </trkpt>
      <trkpt lat="49.669356672093272" lon="5.499061485752463">
        <ele>375.015625</ele>
      </trkpt>
      <trkpt lat="49.670098638162017" lon="5.499595999717712">
        <ele>374.1015625</ele>
      </trkpt>
      <trkpt lat="49.671004135161638" lon="5.500219613313675">
        <ele>375.66796875</ele>
      </trkpt>
      <trkpt lat="49.671117374673486" lon="5.500308712944388">
        <ele>375.48046875</ele>
      </trkpt>
      <trkpt lat="49.671544935554266" lon="5.500754127278924">
        <ele>375.22265625</ele>
      </trkpt>
      <trkpt lat="49.671777868643403" lon="5.500942217186093">
        <ele>376.4140625</ele>
      </trkpt>
      <trkpt lat="49.67198540456593" lon="5.501060988754034">
        <ele>377.4921875</ele>
      </trkpt>
      <trkpt lat="49.672192856669426" lon="5.501209432259202">
        <ele>378.32421875</ele>
      </trkpt>
      <trkpt lat="49.672482116147876" lon="5.501417303457856">
        <ele>379.015625</ele>
      </trkpt>
      <trkpt lat="49.673140766099095" lon="5.501922145485878">
        <ele>380.59375</ele>
      </trkpt>
      <trkpt lat="49.673757003620267" lon="5.502337804064155">
        <ele>383.62109375</ele>
      </trkpt>
      <trkpt lat="49.674562169238925" lon="5.502862427383661">
        <ele>381.453125</ele>
      </trkpt>
      <trkpt lat="49.674582788720727" lon="5.502880616113544">
        <ele>381.39453125</ele>
      </trkpt>
      <trkpt lat="49.674501987174153" lon="5.503276493400335">
        <ele>379.34765625</ele>
      </trkpt>
      <trkpt lat="49.674331247806549" lon="5.503955259919167">
        <ele>376.265625</ele>
      </trkpt>
      <trkpt lat="49.674178529530764" lon="5.504959244281054">
        <ele>372.06640625</ele>
      </trkpt>
      <trkpt lat="49.674205519258976" lon="5.505510689690709">
        <ele>370.9296875</ele>
      </trkpt>
      <trkpt lat="49.674196550622582" lon="5.506062218919396">
        <ele>370.5703125</ele>
      </trkpt>
      <trkpt lat="49.674142654985189" lon="5.506641995161772">
        <ele>371.54296875</ele>
      </trkpt>
      <trkpt lat="49.674043832346797" lon="5.50691063515842">
        <ele>372.140625</ele>
      </trkpt>
      <trkpt lat="49.673989936709404" lon="5.507419668138027">
        <ele>372.46484375</ele>
      </trkpt>
      <trkpt lat="49.673918019980192" lon="5.50873470492661">
        <ele>371.81640625</ele>
      </trkpt>
      <trkpt lat="49.673918019980192" lon="5.509173078462482">
        <ele>370.69140625</ele>
      </trkpt>
      <trkpt lat="49.673765301704407" lon="5.509894257411361">
        <ele>367.71875</ele>
      </trkpt>
      <trkpt lat="49.673558687791228" lon="5.51082749851048">
        <ele>362.5703125</ele>
      </trkpt>
      <trkpt lat="49.673576708883047" lon="5.511124469339848">
        <ele>361.35546875</ele>
      </trkpt>
      <trkpt lat="49.673792291432619" lon="5.511760823428631">
        <ele>358.6640625</ele>
      </trkpt>
      <trkpt lat="49.673379063606262" lon="5.511308284476399">
        <ele>361.1796875</ele>
      </trkpt>
      <trkpt lat="49.672902971506119" lon="5.510431621223688">
        <ele>366.97265625</ele>
      </trkpt>
      <trkpt lat="49.672669367864728" lon="5.509668029844761">
        <ele>371.5625</ele>
      </trkpt>
      <trkpt lat="49.672471722587943" lon="5.508607467636466">
        <ele>373.8984375</ele>
      </trkpt>
      <trkpt lat="49.672256140038371" lon="5.507575236260891">
        <ele>374.06640625</ele>
      </trkpt>
      <trkpt lat="49.672067547217011" lon="5.506557086482644">
        <ele>374.8984375</ele>
      </trkpt>
      <trkpt lat="49.6719507034868" lon="5.506585417315364">
        <ele>374.4453125</ele>
      </trkpt>
      <trkpt lat="49.671681225299835" lon="5.50692480057478">
        <ele>373.33984375</ele>
      </trkpt>
      <trkpt lat="49.671492548659444" lon="5.507334843277931">
        <ele>372.9921875</ele>
      </trkpt>
      <trkpt lat="49.671366820111871" lon="5.507631814107299">
        <ele>373.27734375</ele>
      </trkpt>
      <trkpt lat="49.671303955838084" lon="5.507971113547683">
        <ele>373.87890625</ele>
      </trkpt>
      <trkpt lat="49.671115279197693" lon="5.508041856810451">
        <ele>373.43359375</ele>
      </trkpt>
      <trkpt lat="49.670836832374334" lon="5.50826808437705">
        <ele>372.89453125</ele>
      </trkpt>
      <trkpt lat="49.670441541820765" lon="5.508692292496562">
        <ele>371.44140625</ele>
      </trkpt>
      <trkpt lat="49.67024389654398" lon="5.509074088186026">
        <ele>370.86328125</ele>
      </trkpt>
      <trkpt lat="49.669857658445835" lon="5.509950835257769">
        <ele>368.1640625</ele>
      </trkpt>
      <trkpt lat="49.669507294893265" lon="5.510700261220336">
        <ele>364.6875</ele>
      </trkpt>
      <trkpt lat="49.669219879433513" lon="5.510954819619656">
        <ele>361</ele>
      </trkpt>
      <trkpt lat="49.668815620243549" lon="5.511209294199944">
        <ele>356.140625</ele>
      </trkpt>
      <trkpt lat="49.668528120964766" lon="5.511336615309119">
        <ele>352.83984375</ele>
      </trkpt>
      <trkpt lat="49.668600037693977" lon="5.511888060718775">
        <ele>351.9375</ele>
      </trkpt>
      <trkpt lat="49.66877069324255" lon="5.512750642374158">
        <ele>351.55078125</ele>
      </trkpt>
      <trkpt lat="49.669022234156728" lon="5.513443490490317">
        <ele>352.80859375</ele>
      </trkpt>
      <trkpt lat="49.66865393333137" lon="5.513570727780461">
        <ele>350.65625</ele>
      </trkpt>
      <trkpt lat="49.668528120964766" lon="5.513641471043229">
        <ele>350.25</ele>
      </trkpt>
      <trkpt lat="49.668249674141407" lon="5.513542480766773">
        <ele>348.8984375</ele>
      </trkpt>
      <trkpt lat="49.667860502377152" lon="5.513363443315029">
        <ele>350.06640625</ele>
      </trkpt>
      <trkpt lat="49.667537044733763" lon="5.513236206024885">
        <ele>353.71484375</ele>
      </trkpt>
      <trkpt lat="49.667186765000224" lon="5.513101844117045">
        <ele>357.2578125</ele>
      </trkpt>
      <trkpt lat="49.66684989631176" lon="5.512974606826901">
        <ele>359.73046875</ele>
      </trkpt>
      <trkpt lat="49.666652251034975" lon="5.512967566028237">
        <ele>361.5859375</ele>
      </trkpt>
      <trkpt lat="49.666481595486403" lon="5.513031184673309">
        <ele>363.609375</ele>
      </trkpt>
      <trkpt lat="49.66638277284801" lon="5.513123050332069">
        <ele>364.93359375</ele>
      </trkpt>
      <trkpt lat="49.666288392618299" lon="5.513250371441245">
        <ele>365.81640625</ele>
      </trkpt>
      <trkpt lat="49.666562397032976" lon="5.513377608731389">
        <ele>364.77734375</ele>
      </trkpt>
      <trkpt lat="49.666867833584547" lon="5.513504846021533">
        <ele>362.53125</ele>
      </trkpt>
      <trkpt lat="49.667155332863331" lon="5.513589754700661">
        <ele>360.421875</ele>
      </trkpt>
      <trkpt lat="49.667290030047297" lon="5.513688661158085">
        <ele>359.57421875</ele>
      </trkpt>
      <trkpt lat="49.667635867372155" lon="5.514049250632525">
        <ele>356.7734375</ele>
      </trkpt>
      <trkpt lat="49.667986230924726" lon="5.514452252537012">
        <ele>355.36328125</ele>
      </trkpt>
      <trkpt lat="49.668363500386477" lon="5.51486941985786">
        <ele>356.11328125</ele>
      </trkpt>
      <trkpt lat="49.668448828160763" lon="5.514954244717956">
        <ele>355.8046875</ele>
      </trkpt>
      <trkpt lat="49.66874529607594" lon="5.515569392591715">
        <ele>355.16796875</ele>
      </trkpt>
      <trkpt lat="49.668996836990118" lon="5.51602897234261">
        <ele>355.21484375</ele>
      </trkpt>
      <trkpt lat="49.669239409267902" lon="5.51646726205945">
        <ele>355.046875</ele>
      </trkpt>
      <trkpt lat="49.669273775070906" lon="5.516520235687494">
        <ele>354.97265625</ele>
      </trkpt>
      <trkpt lat="49.669394893571734" lon="5.517015354707837">
        <ele>355.73828125</ele>
      </trkpt>
      <trkpt lat="49.66954761184752" lon="5.517453644424677">
        <ele>355.76171875</ele>
      </trkpt>
      <trkpt lat="49.669556664302945" lon="5.51786377094686">
        <ele>356.7734375</ele>
      </trkpt>
      <trkpt lat="49.669538643211126" lon="5.518160741776228">
        <ele>357.75390625</ele>
      </trkpt>
      <trkpt lat="49.669314092025161" lon="5.518669774755836">
        <ele>359.6875</ele>
      </trkpt>
      <trkpt lat="49.669170342385769" lon="5.518980827182531">
        <ele>360.49609375</ele>
      </trkpt>
      <trkpt lat="49.669251227751374" lon="5.519716171547771">
        <ele>356.05859375</ele>
      </trkpt>
      <trkpt lat="49.669844079762697" lon="5.520536256954074">
        <ele>348.96875</ele>
      </trkpt>
      <trkpt lat="49.670392088592052" lon="5.521328179165721">
        <ele>344.83203125</ele>
      </trkpt>
      <trkpt lat="49.670823253691196" lon="5.521936202421784">
        <ele>343.64453125</ele>
      </trkpt>
      <trkpt lat="49.671119721606374" lon="5.5225018132478">
        <ele>343.1015625</ele>
      </trkpt>
      <trkpt lat="49.671137658879161" lon="5.522544225677848">
        <ele>343.05859375</ele>
      </trkpt>
      <trkpt lat="49.669664455577731" lon="5.522869443520904">
        <ele>352.515625</ele>
      </trkpt>
      <trkpt lat="49.66861336492002" lon="5.523081589490175">
        <ele>358.86328125</ele>
      </trkpt>
      <trkpt lat="49.668444050475955" lon="5.522770453244448">
        <ele>360.3671875</ele>
      </trkpt>
      <trkpt lat="49.668417060747743" lon="5.522388657554984">
        <ele>360.71484375</ele>
      </trkpt>
      <trkpt lat="49.66817457228899" lon="5.521695809438825">
        <ele>361.51171875</ele>
      </trkpt>
      <trkpt lat="49.667860167101026" lon="5.520833227783442">
        <ele>361.53515625</ele>
      </trkpt>
      <trkpt lat="49.667527740821242" lon="5.519871739670634">
        <ele>363.8125</ele>
      </trkpt>
      <trkpt lat="49.667482813820243" lon="5.519489943981171">
        <ele>365.95703125</ele>
      </trkpt>
      <trkpt lat="49.667384075000882" lon="5.519164642319083">
        <ele>368.14453125</ele>
      </trkpt>
      <trkpt lat="49.667267231270671" lon="5.518811177462339">
        <ele>369.65625</ele>
      </trkpt>
      <trkpt lat="49.66724032536149" lon="5.518542537465692">
        <ele>370.41796875</ele>
      </trkpt>
      <trkpt lat="49.667114512994885" lon="5.518259648233652">
        <ele>370.90234375</ele>
      </trkpt>
      <trkpt lat="49.666970847174525" lon="5.518033420667052">
        <ele>370.453125</ele>
      </trkpt>
      <trkpt lat="49.666880993172526" lon="5.51786377094686">
        <ele>370.16796875</ele>
      </trkpt>
      <trkpt lat="49.666629452258348" lon="5.518005173653364">
        <ele>370.54296875</ele>
      </trkpt>
      <trkpt lat="49.666332984343171" lon="5.518061751499772">
        <ele>370.44921875</ele>
      </trkpt>
      <trkpt lat="49.666108433157206" lon="5.51808999851346">
        <ele>369.671875</ele>
      </trkpt>
      <trkpt lat="49.665946746245027" lon="5.5180758330971">
        <ele>369.07421875</ele>
      </trkpt>
      <trkpt lat="49.665856892243028" lon="5.518146576359868">
        <ele>368.8359375</ele>
      </trkpt>
      <trkpt lat="49.665398737415671" lon="5.518372803926468">
        <ele>368.015625</ele>
      </trkpt>
      <trkpt lat="49.665012499317527" lon="5.51878284662962">
        <ele>368.38671875</ele>
      </trkpt>
      <trkpt lat="49.664760958403349" lon="5.519065652042627">
        <ele>368.890625</ele>
      </trkpt>
      <trkpt lat="49.664635229855776" lon="5.519150560721755">
        <ele>368.94921875</ele>
      </trkpt>
      <trkpt lat="49.664581250399351" lon="5.519178807735443">
        <ele>368.83203125</ele>
      </trkpt>
      <trkpt lat="49.6642489079386" lon="5.519122229889035">
        <ele>369.03515625</ele>
      </trkpt>
      <trkpt lat="49.664087221026421" lon="5.519122229889035">
        <ele>369.05078125</ele>
      </trkpt>
      <trkpt lat="49.663907513022423" lon="5.519235385581851">
        <ele>368.41015625</ele>
      </trkpt>
      <trkpt lat="49.66385361738503" lon="5.519475778564811">
        <ele>366.9296875</ele>
      </trkpt>
      <trkpt lat="49.663862669840455" lon="5.519687840715051">
        <ele>365.67578125</ele>
      </trkpt>
      <trkpt lat="49.663647003471851" lon="5.520097967237234">
        <ele>363.5390625</ele>
      </trkpt>
      <trkpt lat="49.663449442014098" lon="5.520493844524026">
        <ele>362.11328125</ele>
      </trkpt>
      <trkpt lat="49.663332598283887" lon="5.520833227783442">
        <ele>360.9765625</ele>
      </trkpt>
      <trkpt lat="49.663188932463527" lon="5.520974630489945">
        <ele>360.94140625</ele>
      </trkpt>
      <trkpt lat="49.663108047097921" lon="5.521158445626497">
        <ele>360.96484375</ele>
      </trkpt>
      <trkpt lat="49.663125984370708" lon="5.521511994302273">
        <ele>360.89453125</ele>
      </trkpt>
      <trkpt lat="49.663233775645494" lon="5.521879624575377">
        <ele>360.50390625</ele>
      </trkpt>
      <trkpt lat="49.663332598283887" lon="5.522063439711928">
        <ele>360.05859375</ele>
      </trkpt>
      <trkpt lat="49.663467379286885" lon="5.52224725484848">
        <ele>359.36328125</ele>
      </trkpt>
      <trkpt lat="49.663638034835458" lon="5.5227280408144">
        <ele>358.390625</ele>
      </trkpt>
      <trkpt lat="49.663871638476849" lon="5.522926021367312">
        <ele>357.19140625</ele>
      </trkpt>
      <trkpt lat="49.664168106392026" lon="5.523237157613039">
        <ele>356.734375</ele>
      </trkpt>
      <trkpt lat="49.664338761940598" lon="5.523505797609687">
        <ele>357.453125</ele>
      </trkpt>
      <trkpt lat="49.664392657577991" lon="5.523689612746239">
        <ele>358.203125</ele>
      </trkpt>
      <trkpt lat="49.664392657577991" lon="5.523958252742887">
        <ele>359.44140625</ele>
      </trkpt>
      <trkpt lat="49.664329793304205" lon="5.524057243019342">
        <ele>360.109375</ele>
      </trkpt>
      <trkpt lat="49.663961492478848" lon="5.524212811142206">
        <ele>362.06640625</ele>
      </trkpt>
      <trkpt lat="49.663341650739312" lon="5.524566359817982">
        <ele>365.9453125</ele>
      </trkpt>
      <trkpt lat="49.66277570463717" lon="5.52484916523099">
        <ele>369.25</ele>
      </trkpt>
      <trkpt lat="49.66153216548264" lon="5.525513766333461">
        <ele>373.625</ele>
      </trkpt>
      <trkpt lat="49.660834036767483" lon="5.525853065773845">
        <ele>371.59765625</ele>
      </trkpt>
      <trkpt lat="49.660492725670338" lon="5.52598038688302">
        <ele>369.46484375</ele>
      </trkpt>
      <trkpt lat="49.659012481570244" lon="5.526503585278988">
        <ele>359.546875</ele>
      </trkpt>
      <trkpt lat="49.658302115276456" lon="5.526729812845588">
        <ele>355.67578125</ele>
      </trkpt>
      <trkpt lat="49.658032637089491" lon="5.526871215552092">
        <ele>353.921875</ele>
      </trkpt>
      <trkpt lat="49.65765536762774" lon="5.52689946256578">
        <ele>354.38671875</ele>
      </trkpt>
      <trkpt lat="49.657394858077168" lon="5.526998452842236">
        <ele>354.421875</ele>
      </trkpt>
      <trkpt lat="49.656945671886206" lon="5.527168186381459">
        <ele>355.609375</ele>
      </trkpt>
      <trkpt lat="49.655908159911633" lon="5.527648972347379">
        <ele>362.09765625</ele>
      </trkpt>
      <trkpt lat="49.653946040198207" lon="5.528624625876546">
        <ele>362.88671875</ele>
      </trkpt>
      <trkpt lat="49.652460012584925" lon="5.529402382671833">
        <ele>364.6640625</ele>
      </trkpt>
      <trkpt lat="49.652415839955211" lon="5.529455188661814">
        <ele>364.6953125</ele>
      </trkpt>
      <trkpt lat="49.651688206940889" lon="5.529808653518558">
        <ele>364.91796875</ele>
      </trkpt>
      <trkpt lat="49.649993721395731" lon="5.530643910169601">
        <ele>373.53125</ele>
      </trkpt>
      <trkpt lat="49.649844942614436" lon="5.530686322599649">
        <ele>374.375</ele>
      </trkpt>
      <trkpt lat="49.649719130247831" lon="5.530573166906834">
        <ele>374.77734375</ele>
      </trkpt>
      <trkpt lat="49.64941369369626" lon="5.530559085309506">
        <ele>375.23046875</ele>
      </trkpt>
      <trkpt lat="49.64938678778708" lon="5.530092380940914">
        <ele>374.95703125</ele>
      </trkpt>
      <trkpt lat="49.649395756423473" lon="5.529300542548299">
        <ele>375.5234375</ele>
      </trkpt>
      <trkpt lat="49.649063413962722" lon="5.528409713879228">
        <ele>378.15625</ele>
      </trkpt>
      <trkpt lat="49.648946570232511" lon="5.528070330619812">
        <ele>379.13671875</ele>
      </trkpt>
      <trkpt lat="49.648910695686936" lon="5.527928927913308">
        <ele>379.41796875</ele>
      </trkpt>
      <trkpt lat="49.648883705958724" lon="5.527787525206804">
        <ele>379.45703125</ele>
      </trkpt>
      <trkpt lat="49.648829810321331" lon="5.527617875486612">
        <ele>379.40234375</ele>
      </trkpt>
      <trkpt lat="49.648713050410151" lon="5.527094677090645">
        <ele>377.5703125</ele>
      </trkpt>
      <trkpt lat="49.648443572223186" lon="5.526698715984821">
        <ele>375.61328125</ele>
      </trkpt>
      <trkpt lat="49.648200999945402" lon="5.526118939742446">
        <ele>374.5234375</ele>
      </trkpt>
      <trkpt lat="49.648039313033223" lon="5.525595741346479">
        <ele>373.6640625</ele>
      </trkpt>
      <trkpt lat="49.647769834846258" lon="5.525213945657015">
        <ele>372.80859375</ele>
      </trkpt>
      <trkpt lat="49.647392481565475" lon="5.525086708366871">
        <ele>372.1953125</ele>
      </trkpt>
      <trkpt lat="49.647078076377511" lon="5.524733159691095">
        <ele>369.75390625</ele>
      </trkpt>
      <trkpt lat="49.646907420828938" lon="5.524337282404304">
        <ele>367.12890625</ele>
      </trkpt>
      <trkpt lat="49.646844556555152" lon="5.523983733728528">
        <ele>365.59375</ele>
      </trkpt>
      <trkpt lat="49.646727796643972" lon="5.523884743452072">
        <ele>364.85546875</ele>
      </trkpt>
      <trkpt lat="49.64658404700458" lon="5.523884743452072">
        <ele>364.3203125</ele>
      </trkpt>
      <trkpt lat="49.646494193002582" lon="5.52392715588212">
        <ele>364.05078125</ele>
      </trkpt>
      <trkpt lat="49.64635044336319" lon="5.523884743452072">
        <ele>363.5625</ele>
      </trkpt>
      <trkpt lat="49.646170819178224" lon="5.523446453735232">
        <ele>362.828125</ele>
      </trkpt>
      <trkpt lat="49.646018100902438" lon="5.523191895335913">
        <ele>362.51953125</ele>
      </trkpt>
      <trkpt lat="49.645784497261047" lon="5.522937336936593">
        <ele>362.23828125</ele>
      </trkpt>
      <trkpt lat="49.645586935803294" lon="5.522527294233441">
        <ele>362.00390625</ele>
      </trkpt>
      <trkpt lat="49.645542008802295" lon="5.522230323404074">
        <ele>361.59765625</ele>
      </trkpt>
      <trkpt lat="49.645658768713474" lon="5.521749537438154">
        <ele>361.30078125</ele>
      </trkpt>
      <trkpt lat="49.645586935803294" lon="5.521254669874907">
        <ele>359.1796875</ele>
      </trkpt>
      <trkpt lat="49.64527253061533" lon="5.520547656342387">
        <ele>356.71875</ele>
      </trkpt>
      <trkpt lat="49.644976062700152" lon="5.520165860652924">
        <ele>357.45703125</ele>
      </trkpt>
      <trkpt lat="49.644796354696155" lon="5.52002445794642">
        <ele>357.80078125</ele>
      </trkpt>
      <trkpt lat="49.644656041637063" lon="5.519966203719378">
        <ele>358.140625</ele>
      </trkpt>
      <trkpt lat="49.644530229270458" lon="5.519556077197194">
        <ele>360.8515625</ele>
      </trkpt>
      <trkpt lat="49.644377510994673" lon="5.519089456647635">
        <ele>363.3046875</ele>
      </trkpt>
      <trkpt lat="49.644260751083493" lon="5.518693579360843">
        <ele>364.63671875</ele>
      </trkpt>
      <trkpt lat="49.644224792718887" lon="5.518481433391571">
        <ele>365.38671875</ele>
      </trkpt>
      <trkpt lat="49.644314646720886" lon="5.518113803118467">
        <ele>366.6640625</ele>
      </trkpt>
      <trkpt lat="49.6442068554461" lon="5.517279468476772">
        <ele>367.2734375</ele>
      </trkpt>
      <trkpt lat="49.644090095534921" lon="5.516473464667797">
        <ele>365.98046875</ele>
      </trkpt>
      <trkpt lat="49.644063105806708" lon="5.516247237101197">
        <ele>365.02734375</ele>
      </trkpt>
      <trkpt lat="49.644099064171314" lon="5.51570987328887">
        <ele>363.0859375</ele>
      </trkpt>
      <trkpt lat="49.643946345895529" lon="5.51501702517271">
        <ele>360.22265625</ele>
      </trkpt>
      <trkpt lat="49.643883481621742" lon="5.514720054343343">
        <ele>359.3515625</ele>
      </trkpt>
      <trkpt lat="49.643685836344957" lon="5.514493826776743">
        <ele>358.5703125</ele>
      </trkpt>
      <trkpt lat="49.643542086705565" lon="5.514027206227183">
        <ele>356.91796875</ele>
      </trkpt>
      <trkpt lat="49.643452232703567" lon="5.51340501755476">
        <ele>353.625</ele>
      </trkpt>
      <trkpt lat="49.643703773617744" lon="5.512853572145104">
        <ele>352.78125</ele>
      </trkpt>
      <trkpt lat="49.644018178805709" lon="5.511849587783217">
        <ele>351.046875</ele>
      </trkpt>
      <trkpt lat="49.644170897081494" lon="5.511170569807291">
        <ele>348.7890625</ele>
      </trkpt>
      <trkpt lat="49.644772801548243" lon="5.509190931916237">
        <ele>344.0703125</ele>
      </trkpt>
      <trkpt lat="49.644970446825027" lon="5.50844150595367">
        <ele>344.56640625</ele>
      </trkpt>
      <trkpt lat="49.645221987739205" lon="5.507621336728334">
        <ele>340.3125</ele>
      </trkpt>
      <trkpt lat="49.645293820649385" lon="5.507197128608823">
        <ele>336.97265625</ele>
      </trkpt>
      <trkpt lat="49.645302789285779" lon="5.506193144246936">
        <ele>333.45703125</ele>
      </trkpt>
      <trkpt lat="49.64525786228478" lon="5.505556873977184">
        <ele>334.78515625</ele>
      </trkpt>
      <trkpt lat="49.645168092101812" lon="5.505019510164857">
        <ele>335.5234375</ele>
      </trkpt>
      <trkpt lat="49.644916551187634" lon="5.504213506355882">
        <ele>334.4140625</ele>
      </trkpt>
      <trkpt lat="49.644539197906852" lon="5.503379255533218">
        <ele>325.3203125</ele>
      </trkpt>
      <trkpt lat="49.644449427723885" lon="5.503011541441083">
        <ele>322.98828125</ele>
      </trkpt>
      <trkpt lat="49.644377510994673" lon="5.502375271171331">
        <ele>320.51171875</ele>
      </trkpt>
      <trkpt lat="49.644817728549242" lon="5.501489974558353">
        <ele>325.09375</ele>
      </trkpt>
      <trkpt lat="49.645653152838349" lon="5.500584980472922">
        <ele>330.10546875</ele>
      </trkpt>
      <trkpt lat="49.646272994577885" lon="5.499920379370451">
        <ele>335.60546875</ele>
      </trkpt>
      <trkpt lat="49.646156234666705" lon="5.499566830694675">
        <ele>336.18359375</ele>
      </trkpt>
      <trkpt lat="49.646120276302099" lon="5.499411346390843">
        <ele>336.59375</ele>
      </trkpt>
      <trkpt lat="49.646156234666705" lon="5.499128540977836">
        <ele>337.4375</ele>
      </trkpt>
      <trkpt lat="49.646326890215278" lon="5.498888147994876">
        <ele>338.67578125</ele>
      </trkpt>
      <trkpt lat="49.646506514400244" lon="5.498690167441964">
        <ele>339.94921875</ele>
      </trkpt>
      <trkpt lat="49.646452618762851" lon="5.498011400923133">
        <ele>343.0703125</ele>
      </trkpt>
      <trkpt lat="49.646380785852671" lon="5.497459955513477">
        <ele>345.05859375</ele>
      </trkpt>
      <trkpt lat="49.646246004849672" lon="5.497049828991294">
        <ele>346.04296875</ele>
      </trkpt>
      <trkpt lat="49.645967558026314" lon="5.4963484313339">
        <ele>347.36328125</ele>
      </trkpt>
      <trkpt lat="49.645590288564563" lon="5.49564141780138">
        <ele>348</ele>
      </trkpt>
      <trkpt lat="49.645078238099813" lon="5.494580855593085">
        <ele>345.8125</ele>
      </trkpt>
      <trkpt lat="49.644656041637063" lon="5.493715424090624">
        <ele>342.89453125</ele>
      </trkpt>
      <trkpt lat="49.644359573721886" lon="5.493064904585481">
        <ele>340.97265625</ele>
      </trkpt>
      <trkpt lat="49.644090095534921" lon="5.492711439728737">
        <ele>338.3671875</ele>
      </trkpt>
      <trkpt lat="49.643479222431779" lon="5.492442715913057">
        <ele>335.76953125</ele>
      </trkpt>
      <trkpt lat="49.643039088696241" lon="5.492216488346458">
        <ele>337.50390625</ele>
      </trkpt>
      <trkpt lat="49.643092984333634" lon="5.491976095363498">
        <ele>339.890625</ele>
      </trkpt>
      <trkpt lat="49.644125970080495" lon="5.491537805646658">
        <ele>340.69140625</ele>
      </trkpt>
      <trkpt lat="49.645051248371601" lon="5.49145289696753">
        <ele>345.1171875</ele>
      </trkpt>
      <trkpt lat="49.645401611924171" lon="5.491509474813938">
        <ele>344.8984375</ele>
      </trkpt>
      <trkpt lat="49.64600351639092" lon="5.491495309397578">
        <ele>345.765625</ele>
      </trkpt>
      <trkpt lat="49.646326890215278" lon="5.491566052660346">
        <ele>346.0390625</ele>
      </trkpt>
      <trkpt lat="49.646587399765849" lon="5.491495309397578">
        <ele>346.75</ele>
      </trkpt>
      <trkpt lat="49.647288043051958" lon="5.490477243438363">
        <ele>348.9921875</ele>
      </trkpt>
      <trkpt lat="49.647889947518706" lon="5.48962589353323">
        <ele>351.640625</ele>
      </trkpt>
      <trkpt lat="49.648141488432884" lon="5.489314841106534">
        <ele>353.76171875</ele>
      </trkpt>
      <trkpt lat="49.648917485028505" lon="5.488522835075855">
        <ele>356.0703125</ele>
      </trkpt>
      <trkpt lat="49.650247022509575" lon="5.487052230164409">
        <ele>357.890625</ele>
      </trkpt>
      <trkpt lat="49.649905627593398" lon="5.485977586358786">
        <ele>359.6484375</ele>
      </trkpt>
      <trkpt lat="49.649456525221467" lon="5.484620053321123">
        <ele>359.64453125</ele>
      </trkpt>
      <trkpt lat="49.649177994579077" lon="5.483870627358556">
        <ele>357.015625</ele>
      </trkpt>
      <trkpt lat="49.648953443393111" lon="5.483446419239044">
        <ele>356.046875</ele>
      </trkpt>
      <trkpt lat="49.648360591381788" lon="5.482852561399341">
        <ele>354.57421875</ele>
      </trkpt>
      <trkpt lat="49.64768685400486" lon="5.481681609526277">
        <ele>347.21875</ele>
      </trkpt>
      <trkpt lat="49.647273626178503" lon="5.481059504672885">
        <ele>343.546875</ele>
      </trkpt>
      <trkpt lat="49.646977158263326" lon="5.480663543567061">
        <ele>339.26953125</ele>
      </trkpt>
      <trkpt lat="49.646653784438968" lon="5.480437316000462">
        <ele>333.375</ele>
      </trkpt>
      <trkpt lat="49.646051879972219" lon="5.480437316000462">
        <ele>322.83984375</ele>
      </trkpt>
      <trkpt lat="49.645755412057042" lon="5.479914117604494">
        <ele>314.41796875</ele>
      </trkpt>
      <trkpt lat="49.645450059324503" lon="5.479605747386813">
        <ele>315.06640625</ele>
      </trkpt>
      <trkpt lat="49.64504973962903" lon="5.479334006085992">
        <ele>323.53515625</ele>
      </trkpt>
      <trkpt lat="49.644762324169278" lon="5.47941891476512">
        <ele>326.82421875</ele>
      </trkpt>
      <trkpt lat="49.644465856254101" lon="5.479687554761767">
        <ele>327.21875</ele>
      </trkpt>
      <trkpt lat="49.64416041970253" lon="5.480125928297639">
        <ele>326.61328125</ele>
      </trkpt>
      <trkpt lat="49.643890941515565" lon="5.480394568294287">
        <ele>328.11328125</ele>
      </trkpt>
      <trkpt lat="49.643513672053814" lon="5.480436980724335">
        <ele>333.60546875</ele>
      </trkpt>
      <trkpt lat="49.643253162503242" lon="5.480507723987103">
        <ele>337.21875</ele>
      </trkpt>
      <trkpt lat="49.643028527498245" lon="5.480465311557055">
        <ele>340.8828125</ele>
      </trkpt>
      <trkpt lat="49.642965663224459" lon="5.480267331004143">
        <ele>342.70703125</ele>
      </trkpt>
      <trkpt lat="49.642821913585067" lon="5.479319924488664">
        <ele>346.94140625</ele>
      </trkpt>
      <trkpt lat="49.642507508397102" lon="5.478485589846969">
        <ele>349.2734375</ele>
      </trkpt>
      <trkpt lat="49.642130238935351" lon="5.477750329300761">
        <ele>351.08203125</ele>
      </trkpt>
      <trkpt lat="49.641690105199814" lon="5.476986737921834">
        <ele>354.38671875</ele>
      </trkpt>
      <trkpt lat="49.641213929280639" lon="5.476152487099171">
        <ele>356.515625</ele>
      </trkpt>
      <trkpt lat="49.640989378094673" lon="5.475798938423395">
        <ele>357.0390625</ele>
      </trkpt>
      <trkpt lat="49.6408411860466" lon="5.47536333091557">
        <ele>357.78125</ele>
      </trkpt>
      <trkpt lat="49.641167661175132" lon="5.474943146109581">
        <ele>357.45703125</ele>
      </trkpt>
      <trkpt lat="49.641455160453916" lon="5.474094729870558">
        <ele>354.53125</ele>
      </trkpt>
      <trkpt lat="49.641796471551061" lon="5.473246313631535">
        <ele>348.1328125</ele>
      </trkpt>
      <trkpt lat="49.642012054100633" lon="5.472397897392511">
        <ele>342.7109375</ele>
      </trkpt>
      <trkpt lat="49.642137866467237" lon="5.471690883859992">
        <ele>341.3125</ele>
      </trkpt>
      <trkpt lat="49.642137866467237" lon="5.471436325460672">
        <ele>341.875</ele>
      </trkpt>
      <trkpt lat="49.642048012465239" lon="5.470955539494753">
        <ele>342.7890625</ele>
      </trkpt>
      <trkpt lat="49.641796471551061" lon="5.470531331375241">
        <ele>341.8984375</ele>
      </trkpt>
      <trkpt lat="49.641383243724704" lon="5.470022298395634">
        <ele>338.09765625</ele>
      </trkpt>
      <trkpt lat="49.641185682266951" lon="5.469456687569618">
        <ele>337.26171875</ele>
      </trkpt>
      <trkpt lat="49.64141920208931" lon="5.468551693484187">
        <ele>339.21484375</ele>
      </trkpt>
      <trkpt lat="49.64149103499949" lon="5.468438537791371">
        <ele>340.25</ele>
      </trkpt>
      <trkpt lat="49.643036155030131" lon="5.467844679951668">
        <ele>346.5625</ele>
      </trkpt>
      <trkpt lat="49.64413208886981" lon="5.467363893985748">
        <ele>340.87109375</ele>
      </trkpt>
      <trkpt lat="49.644707003608346" lon="5.467137666419148">
        <ele>341.296875</ele>
      </trkpt>
      <trkpt lat="49.645515521988273" lon="5.466826530173421">
        <ele>344.61328125</ele>
      </trkpt>
      <trkpt lat="49.64677314274013" lon="5.466289250180125">
        <ele>348.796875</ele>
      </trkpt>
      <trkpt lat="49.648084742948413" lon="5.465780217200518">
        <ele>351.734375</ele>
      </trkpt>
      <trkpt lat="49.647922972217202" lon="5.465073119848967">
        <ele>347.94921875</ele>
      </trkpt>
      <trkpt lat="49.647671515122056" lon="5.464648911729455">
        <ele>347.65234375</ele>
      </trkpt>
      <trkpt lat="49.647150496020913" lon="5.464620664715767">
        <ele>346.046875</ele>
      </trkpt>
      <trkpt lat="49.646449768915772" lon="5.464648911729455">
        <ele>343.1328125</ele>
      </trkpt>
      <trkpt lat="49.645767062902451" lon="5.464281281456351">
        <ele>340.86328125</ele>
      </trkpt>
      <trkpt lat="49.645515521988273" lon="5.463998476043344">
        <ele>339.78125</ele>
      </trkpt>
      <trkpt lat="49.645120231434703" lon="5.463263215497136">
        <ele>337.16015625</ele>
      </trkpt>
      <trkpt lat="49.64506633579731" lon="5.462754098698497">
        <ele>336.453125</ele>
      </trkpt>
      <trkpt lat="49.644760899245739" lon="5.46176427975297">
        <ele>333.18359375</ele>
      </trkpt>
      <trkpt lat="49.644563337787986" lon="5.461340071633458">
        <ele>332.51953125</ele>
      </trkpt>
      <trkpt lat="49.646198228001595" lon="5.460491655394435">
        <ele>344.6640625</ele>
      </trkpt>
      <trkpt lat="49.646755205467343" lon="5.460152272135019">
        <ele>346.40625</ele>
      </trkpt>
      <trkpt lat="49.648372158408165" lon="5.460039200261235">
        <ele>347.74609375</ele>
      </trkpt>
      <trkpt lat="49.649899341166019" lon="5.460180602967739">
        <ele>349.3203125</ele>
      </trkpt>
      <trkpt lat="49.650702327489853" lon="5.460491655394435">
        <ele>354.71875</ele>
      </trkpt>
      <trkpt lat="49.651690470054746" lon="5.46108559705317">
        <ele>357.10546875</ele>
      </trkpt>
      <trkpt lat="49.652751199901104" lon="5.46153805218637">
        <ele>353.0078125</ele>
      </trkpt>
      <trkpt lat="49.653218323364854" lon="5.461029019206762">
        <ele>350.8671875</ele>
      </trkpt>
      <trkpt lat="49.653703384101391" lon="5.460774460807443">
        <ele>348.35546875</ele>
      </trkpt>
      <trkpt lat="49.65426036156714" lon="5.461142091080546">
        <ele>345.4921875</ele>
      </trkpt>
      <trkpt lat="49.654686078429222" lon="5.462047085165978">
        <ele>345.16015625</ele>
      </trkpt>
      <trkpt lat="49.654865702614188" lon="5.46199050731957">
        <ele>345.265625</ele>
      </trkpt>
      <trkpt lat="49.655692158266902" lon="5.460972441360354">
        <ele>346.70703125</ele>
      </trkpt>
      <trkpt lat="49.656810723245144" lon="5.459710881114006">
        <ele>348.55859375</ele>
      </trkpt>
      <trkpt lat="49.657996511086822" lon="5.458438256755471">
        <ele>343.3828125</ele>
      </trkpt>
      <trkpt lat="49.659601813182235" lon="5.459541147574782">
        <ele>347.203125</ele>
      </trkpt>
      <trkpt lat="49.659386146813631" lon="5.46007851138711">
        <ele>345.96875</ele>
      </trkpt>
      <trkpt lat="49.659314313903451" lon="5.460502719506621">
        <ele>346.94921875</ele>
      </trkpt>
      <trkpt lat="49.660063404589891" lon="5.461888499557972">
        <ele>348.28515625</ele>
      </trkpt>
      <trkpt lat="49.660728173330426" lon="5.462878318503499">
        <ele>348.89453125</ele>
      </trkpt>
      <trkpt lat="49.661015588790178" lon="5.46400954015553">
        <ele>353.95703125</ele>
      </trkpt>
      <trkpt lat="49.661285150796175" lon="5.465338742360473">
        <ele>354.1953125</ele>
      </trkpt>
      <trkpt lat="49.661788903176785" lon="5.467431535944343">
        <ele>347.45703125</ele>
      </trkpt>
      <trkpt lat="49.662112277001143" lon="5.468760738149285">
        <ele>350.9453125</ele>
      </trkpt>
      <trkpt lat="49.662525504827499" lon="5.469100121408701">
        <ele>351.5234375</ele>
      </trkpt>
      <trkpt lat="49.662902858108282" lon="5.47003336250782">
        <ele>352.23828125</ele>
      </trkpt>
      <trkpt lat="49.66329806484282" lon="5.471079759299755">
        <ele>353.296875</ele>
      </trkpt>
      <trkpt lat="49.663921426981688" lon="5.471786772832274">
        <ele>354.28515625</ele>
      </trkpt>
      <trkpt lat="49.66498140245676" lon="5.472635189071298">
        <ele>355.39453125</ele>
      </trkpt>
      <trkpt lat="49.665461014956236" lon="5.472946325317025">
        <ele>355.6796875</ele>
      </trkpt>
      <trkpt lat="49.665317265316844" lon="5.473653338849545">
        <ele>357.1484375</ele>
      </trkpt>
      <trkpt lat="49.665227495133877" lon="5.474162371829152">
        <ele>357.99609375</ele>
      </trkpt>
      <trkpt lat="49.664796246215701" lon="5.475434996187687">
        <ele>357.48828125</ele>
      </trkpt>
      <trkpt lat="49.664239352568984" lon="5.47699042595923">
        <ele>360.6953125</ele>
      </trkpt>
      <trkpt lat="49.663610458374023" lon="5.478772167116404">
        <ele>356.01171875</ele>
      </trkpt>
      <trkpt lat="49.66355656273663" lon="5.478970147669315">
        <ele>355.97265625</ele>
      </trkpt>
      <trkpt lat="49.663915894925594" lon="5.479281200096011">
        <ele>355.01953125</ele>
      </trkpt>
      <trkpt lat="49.665389182046056" lon="5.479592336341739">
        <ele>356.88671875</ele>
      </trkpt>
      <trkpt lat="49.667096743360162" lon="5.479790233075619">
        <ele>360.53125</ele>
      </trkpt>
      <trkpt lat="49.66788724064827" lon="5.479875141754746">
        <ele>365.33984375</ele>
      </trkpt>
      <trkpt lat="49.668246572837234" lon="5.480327596887946">
        <ele>367.6328125</ele>
      </trkpt>
      <trkpt lat="49.668929278850555" lon="5.480751805007458">
        <ele>370.0859375</ele>
      </trkpt>
      <trkpt lat="49.669426828622818" lon="5.480893207713962">
        <ele>371.96484375</ele>
      </trkpt>
      <trkpt lat="49.669606452807784" lon="5.481147766113281">
        <ele>372.9140625</ele>
      </trkpt>
      <trkpt lat="49.669768223538995" lon="5.483495034277439">
        <ele>372.2890625</ele>
      </trkpt>
      <trkpt lat="49.670001743361354" lon="5.485418178141117">
        <ele>374.58984375</ele>
      </trkpt>
      <trkpt lat="49.67003770172596" lon="5.486040366813541">
        <ele>374.90234375</ele>
      </trkpt>
      <trkpt lat="49.669929910451174" lon="5.486690802499652">
        <ele>374.29296875</ele>
      </trkpt>
      <trkpt lat="49.670055638998747" lon="5.488246232271195">
        <ele>369.4609375</ele>
      </trkpt>
      <trkpt lat="49.670271221548319" lon="5.489405784755945">
        <ele>370.03515625</ele>
      </trkpt>
      <trkpt lat="49.670589482411742" lon="5.491043021902442">
        <ele>371.13671875</ele>
      </trkpt>
      <trkpt lat="49.670823086053133" lon="5.491608632728458">
        <ele>372.5390625</ele>
      </trkpt>
      <trkpt lat="49.671182418242097" lon="5.492343893274665">
        <ele>373.4609375</ele>
      </trkpt>
      <trkpt lat="49.671200355514884" lon="5.492626698687673">
        <ele>373.2734375</ele>
      </trkpt>
      <trkpt lat="49.670194275677204" lon="5.494097303599119">
        <ele>368.71484375</ele>
      </trkpt>
      <trkpt lat="49.669529506936669" lon="5.494945719838142">
        <ele>365.79296875</ele>
      </trkpt>
      <trkpt lat="49.668954592198133" lon="5.495369927957654">
        <ele>361.81640625</ele>
      </trkpt>
      <trkpt lat="49.667876595631242" lon="5.49548308365047">
        <ele>358.41015625</ele>
      </trkpt>
      <trkpt lat="49.667391534894705" lon="5.495398258790374">
        <ele>357.671875</ele>
      </trkpt>
      <trkpt lat="49.666960285976529" lon="5.495426505804062">
        <ele>357.921875</ele>
      </trkpt>
      <trkpt lat="49.666475225239992" lon="5.495624486356974">
        <ele>359.21875</ele>
      </trkpt>
      <trkpt lat="49.666079934686422" lon="5.496105272322893">
        <ele>361.03515625</ele>
      </trkpt>
      <trkpt lat="49.665900310501456" lon="5.496783955022693">
        <ele>363.3203125</ele>
      </trkpt>
      <trkpt lat="49.66586435213685" lon="5.496981935575604">
        <ele>363.79296875</ele>
      </trkpt>
      <trkpt lat="49.666097955778241" lon="5.497491052374244">
        <ele>365.01171875</ele>
      </trkpt>
      <trkpt lat="49.666618974879384" lon="5.49734964966774">
        <ele>365.23046875</ele>
      </trkpt>
    </trkseg>
  </trk>

</gpx>