<?xml version="1.0" encoding="utf-8"?><gpx creator="Garmin Desktop App" version="1.1" xsi:schemaLocation="http://www.topografix.com/GPX/1/1 http://www.topografix.com/GPX/1/1/gpx.xsd http://www.garmin.com/xmlschemas/WaypointExtension/v1 http://www8.garmin.com/xmlschemas/WaypointExtensionv1.xsd http://www.garmin.com/xmlschemas/TrackPointExtension/v1 http://www.garmin.com/xmlschemas/TrackPointExtensionv1.xsd http://www.garmin.com/xmlschemas/GpxExtensions/v3 http://www8.garmin.com/xmlschemas/GpxExtensionsv3.xsd http://www.garmin.com/xmlschemas/ActivityExtension/v1 http://www8.garmin.com/xmlschemas/ActivityExtensionv1.xsd http://www.garmin.com/xmlschemas/AdventuresExtensions/v1 http://www8.garmin.com/xmlschemas/AdventuresExtensionv1.xsd http://www.garmin.com/xmlschemas/PressureExtension/v1 http://www.garmin.com/xmlschemas/PressureExtensionv1.xsd http://www.garmin.com/xmlschemas/TripExtensions/v1 http://www.garmin.com/xmlschemas/TripExtensionsv1.xsd http://www.garmin.com/xmlschemas/TripMetaDataExtensions/v1 http://www.garmin.com/xmlschemas/TripMetaDataExtensionsv1.xsd http://www.garmin.com/xmlschemas/ViaPointTransportationModeExtensions/v1 http://www.garmin.com/xmlschemas/ViaPointTransportationModeExtensionsv1.xsd http://www.garmin.com/xmlschemas/CreationTimeExtension/v1 http://www.garmin.com/xmlschemas/CreationTimeExtensionsv1.xsd http://www.garmin.com/xmlschemas/AccelerationExtension/v1 http://www.garmin.com/xmlschemas/AccelerationExtensionv1.xsd http://www.garmin.com/xmlschemas/PowerExtension/v1 http://www.garmin.com/xmlschemas/PowerExtensionv1.xsd http://www.garmin.com/xmlschemas/VideoExtension/v1 http://www.garmin.com/xmlschemas/VideoExtensionv1.xsd" xmlns="http://www.topografix.com/GPX/1/1" xmlns:xsi="http://www.w3.org/2001/XMLSchema-instance" xmlns:wptx1="http://www.garmin.com/xmlschemas/WaypointExtension/v1" xmlns:gpxtrx="http://www.garmin.com/xmlschemas/GpxExtensions/v3" xmlns:gpxtpx="http://www.garmin.com/xmlschemas/TrackPointExtension/v1" xmlns:gpxx="http://www.garmin.com/xmlschemas/GpxExtensions/v3" xmlns:trp="http://www.garmin.com/xmlschemas/TripExtensions/v1" xmlns:adv="http://www.garmin.com/xmlschemas/AdventuresExtensions/v1" xmlns:prs="http://www.garmin.com/xmlschemas/PressureExtension/v1" xmlns:tmd="http://www.garmin.com/xmlschemas/TripMetaDataExtensions/v1" xmlns:vptm="http://www.garmin.com/xmlschemas/ViaPointTransportationModeExtensions/v1" xmlns:ctx="http://www.garmin.com/xmlschemas/CreationTimeExtension/v1" xmlns:gpxacc="http://www.garmin.com/xmlschemas/AccelerationExtension/v1" xmlns:gpxpx="http://www.garmin.com/xmlschemas/PowerExtension/v1" xmlns:vidx1="http://www.garmin.com/xmlschemas/VideoExtension/v1">

  <metadata>
    <link href="http://www.garmin.com">
      <text>Garmin International</text>
    </link>
    <time>2025-01-03T08:40:42Z</time>
    <bounds maxlat="49.674582788720727" maxlon="5.56028944440186" minlat="49.623950812965631" minlon="5.423184055835009" />
  </metadata>

  <trk>
    <name>Hivernale 2025 VTT 44.2 Km D+ 790 m Pour publication</name>
    <extensions>
      <gpxx:TrackExtension>
        <gpxx:DisplayColor>DarkGray</gpxx:DisplayColor>
      </gpxx:TrackExtension>
    </extensions>
    <trkseg>
      <trkpt lat="49.666872778907418" lon="5.497537152841687">
        <ele>366.078125</ele>
      </trkpt>
      <trkpt lat="49.666734477505088" lon="5.497457943856716">
        <ele>365.7421875</ele>
      </trkpt>
      <trkpt lat="49.666690472513437" lon="5.497428271919489">
        <ele>365.57421875</ele>
      </trkpt>
      <trkpt lat="49.666809914633632" lon="5.497111519798636">
        <ele>365.29296875</ele>
      </trkpt>
      <trkpt lat="49.66686649248004" lon="5.496933404356241">
        <ele>365.15234375</ele>
      </trkpt>
      <trkpt lat="49.666942013427615" lon="5.496844304725528">
        <ele>365.24609375</ele>
      </trkpt>
      <trkpt lat="49.667149465531111" lon="5.497032310813665">
        <ele>366.1875</ele>
      </trkpt>
      <trkpt lat="49.667262705042958" lon="5.497131301090121">
        <ele>366.6796875</ele>
      </trkpt>
      <trkpt lat="49.667250132188201" lon="5.49724018201232">
        <ele>366.76953125</ele>
      </trkpt>
      <trkpt lat="49.667495386675" lon="5.49716105684638">
        <ele>367.74609375</ele>
      </trkpt>
      <trkpt lat="49.667935520410538" lon="5.49735895358026">
        <ele>371.12109375</ele>
      </trkpt>
      <trkpt lat="49.668369367718697" lon="5.497537152841687">
        <ele>375.23828125</ele>
      </trkpt>
      <trkpt lat="49.668539185076952" lon="5.497616361826658">
        <ele>376.62109375</ele>
      </trkpt>
      <trkpt lat="49.668709002435207" lon="5.498121120035648">
        <ele>378.94921875</ele>
      </trkpt>
      <trkpt lat="49.668866163119674" lon="5.498220110312104">
        <ele>380.45703125</ele>
      </trkpt>
      <trkpt lat="49.668897595256567" lon="5.498556727543473">
        <ele>379.8046875</ele>
      </trkpt>
      <trkpt lat="49.668922740966082" lon="5.498853614553809">
        <ele>378.296875</ele>
      </trkpt>
      <trkpt lat="49.669356672093272" lon="5.499061485752463">
        <ele>375.015625</ele>
      </trkpt>
      <trkpt lat="49.670098638162017" lon="5.499595999717712">
        <ele>374.1015625</ele>
      </trkpt>
      <trkpt lat="49.671004135161638" lon="5.500219613313675">
        <ele>375.66796875</ele>
      </trkpt>
      <trkpt lat="49.671117374673486" lon="5.500308712944388">
        <ele>375.48046875</ele>
      </trkpt>
      <trkpt lat="49.671544935554266" lon="5.500754127278924">
        <ele>375.22265625</ele>
      </trkpt>
      <trkpt lat="49.671777868643403" lon="5.500942217186093">
        <ele>376.4140625</ele>
      </trkpt>
      <trkpt lat="49.67198540456593" lon="5.501060988754034">
        <ele>377.4921875</ele>
      </trkpt>
      <trkpt lat="49.672192856669426" lon="5.501209432259202">
        <ele>378.32421875</ele>
      </trkpt>
      <trkpt lat="49.672482116147876" lon="5.501417303457856">
        <ele>379.015625</ele>
      </trkpt>
      <trkpt lat="49.673140766099095" lon="5.501922145485878">
        <ele>380.59375</ele>
      </trkpt>
      <trkpt lat="49.673757003620267" lon="5.502337804064155">
        <ele>383.62109375</ele>
      </trkpt>
      <trkpt lat="49.674562169238925" lon="5.502862427383661">
        <ele>381.453125</ele>
      </trkpt>
      <trkpt lat="49.674582788720727" lon="5.502880616113544">
        <ele>381.39453125</ele>
      </trkpt>
      <trkpt lat="49.674501987174153" lon="5.503276493400335">
        <ele>379.34765625</ele>
      </trkpt>
      <trkpt lat="49.674331247806549" lon="5.503955259919167">
        <ele>376.265625</ele>
      </trkpt>
      <trkpt lat="49.674178529530764" lon="5.504959244281054">
        <ele>372.06640625</ele>
      </trkpt>
      <trkpt lat="49.674205519258976" lon="5.505510689690709">
        <ele>370.9296875</ele>
      </trkpt>
      <trkpt lat="49.674196550622582" lon="5.506062218919396">
        <ele>370.5703125</ele>
      </trkpt>
      <trkpt lat="49.674142654985189" lon="5.506641995161772">
        <ele>371.54296875</ele>
      </trkpt>
      <trkpt lat="49.674043832346797" lon="5.50691063515842">
        <ele>372.140625</ele>
      </trkpt>
      <trkpt lat="49.673989936709404" lon="5.507419668138027">
        <ele>372.46484375</ele>
      </trkpt>
      <trkpt lat="49.673918019980192" lon="5.50873470492661">
        <ele>371.81640625</ele>
      </trkpt>
      <trkpt lat="49.673918019980192" lon="5.509173078462482">
        <ele>370.69140625</ele>
      </trkpt>
      <trkpt lat="49.673765301704407" lon="5.509894257411361">
        <ele>367.71875</ele>
      </trkpt>
      <trkpt lat="49.673558687791228" lon="5.51082749851048">
        <ele>362.5703125</ele>
      </trkpt>
      <trkpt lat="49.673576708883047" lon="5.511124469339848">
        <ele>361.35546875</ele>
      </trkpt>
      <trkpt lat="49.673792291432619" lon="5.511760823428631">
        <ele>358.6640625</ele>
      </trkpt>
      <trkpt lat="49.673379063606262" lon="5.511308284476399">
        <ele>361.1796875</ele>
      </trkpt>
      <trkpt lat="49.672902971506119" lon="5.510431621223688">
        <ele>366.97265625</ele>
      </trkpt>
      <trkpt lat="49.672669367864728" lon="5.509668029844761">
        <ele>371.5625</ele>
      </trkpt>
      <trkpt lat="49.672471722587943" lon="5.508607467636466">
        <ele>373.8984375</ele>
      </trkpt>
      <trkpt lat="49.672256140038371" lon="5.507575236260891">
        <ele>374.06640625</ele>
      </trkpt>
      <trkpt lat="49.672067547217011" lon="5.506557086482644">
        <ele>374.8984375</ele>
      </trkpt>
      <trkpt lat="49.6719507034868" lon="5.506585417315364">
        <ele>374.4453125</ele>
      </trkpt>
      <trkpt lat="49.671681225299835" lon="5.50692480057478">
        <ele>373.33984375</ele>
      </trkpt>
      <trkpt lat="49.671492548659444" lon="5.507334843277931">
        <ele>372.9921875</ele>
      </trkpt>
      <trkpt lat="49.671366820111871" lon="5.507631814107299">
        <ele>373.27734375</ele>
      </trkpt>
      <trkpt lat="49.671303955838084" lon="5.507971113547683">
        <ele>373.87890625</ele>
      </trkpt>
      <trkpt lat="49.671115279197693" lon="5.508041856810451">
        <ele>373.43359375</ele>
      </trkpt>
      <trkpt lat="49.670836832374334" lon="5.50826808437705">
        <ele>372.89453125</ele>
      </trkpt>
      <trkpt lat="49.670441541820765" lon="5.508692292496562">
        <ele>371.44140625</ele>
      </trkpt>
      <trkpt lat="49.67024389654398" lon="5.509074088186026">
        <ele>370.86328125</ele>
      </trkpt>
      <trkpt lat="49.669857658445835" lon="5.509950835257769">
        <ele>368.1640625</ele>
      </trkpt>
      <trkpt lat="49.669507294893265" lon="5.510700261220336">
        <ele>364.6875</ele>
      </trkpt>
      <trkpt lat="49.669219879433513" lon="5.510954819619656">
        <ele>361</ele>
      </trkpt>
      <trkpt lat="49.668815620243549" lon="5.511209294199944">
        <ele>356.140625</ele>
      </trkpt>
      <trkpt lat="49.668528120964766" lon="5.511336615309119">
        <ele>352.83984375</ele>
      </trkpt>
      <trkpt lat="49.668600037693977" lon="5.511888060718775">
        <ele>351.9375</ele>
      </trkpt>
      <trkpt lat="49.66877069324255" lon="5.512750642374158">
        <ele>351.55078125</ele>
      </trkpt>
      <trkpt lat="49.669022234156728" lon="5.513443490490317">
        <ele>352.80859375</ele>
      </trkpt>
      <trkpt lat="49.669022234156728" lon="5.513443490490317">
        <ele>352.80859375</ele>
      </trkpt>
      <trkpt lat="49.66865393333137" lon="5.513570727780461">
        <ele>350.65625</ele>
      </trkpt>
      <trkpt lat="49.668528120964766" lon="5.513641471043229">
        <ele>350.25</ele>
      </trkpt>
      <trkpt lat="49.668249674141407" lon="5.513542480766773">
        <ele>348.8984375</ele>
      </trkpt>
      <trkpt lat="49.667860502377152" lon="5.513363443315029">
        <ele>350.06640625</ele>
      </trkpt>
      <trkpt lat="49.667537044733763" lon="5.513236206024885">
        <ele>353.71484375</ele>
      </trkpt>
      <trkpt lat="49.667186765000224" lon="5.513101844117045">
        <ele>357.2578125</ele>
      </trkpt>
      <trkpt lat="49.66684989631176" lon="5.512974606826901">
        <ele>359.73046875</ele>
      </trkpt>
      <trkpt lat="49.666652251034975" lon="5.512967566028237">
        <ele>361.5859375</ele>
      </trkpt>
      <trkpt lat="49.666481595486403" lon="5.513031184673309">
        <ele>363.609375</ele>
      </trkpt>
      <trkpt lat="49.66638277284801" lon="5.513123050332069">
        <ele>364.93359375</ele>
      </trkpt>
      <trkpt lat="49.666288392618299" lon="5.513250371441245">
        <ele>365.81640625</ele>
      </trkpt>
      <trkpt lat="49.666562397032976" lon="5.513377608731389">
        <ele>364.77734375</ele>
      </trkpt>
      <trkpt lat="49.666867833584547" lon="5.513504846021533">
        <ele>362.53125</ele>
      </trkpt>
      <trkpt lat="49.667155332863331" lon="5.513589754700661">
        <ele>360.421875</ele>
      </trkpt>
      <trkpt lat="49.667290030047297" lon="5.513688661158085">
        <ele>359.57421875</ele>
      </trkpt>
      <trkpt lat="49.667635867372155" lon="5.514049250632525">
        <ele>356.7734375</ele>
      </trkpt>
      <trkpt lat="49.667986230924726" lon="5.514452252537012">
        <ele>355.36328125</ele>
      </trkpt>
      <trkpt lat="49.668363500386477" lon="5.51486941985786">
        <ele>356.11328125</ele>
      </trkpt>
      <trkpt lat="49.668448828160763" lon="5.514954244717956">
        <ele>355.8046875</ele>
      </trkpt>
      <trkpt lat="49.66874529607594" lon="5.515569392591715">
        <ele>355.16796875</ele>
      </trkpt>
      <trkpt lat="49.668996836990118" lon="5.51602897234261">
        <ele>355.21484375</ele>
      </trkpt>
      <trkpt lat="49.669239409267902" lon="5.51646726205945">
        <ele>355.046875</ele>
      </trkpt>
      <trkpt lat="49.669273775070906" lon="5.516520235687494">
        <ele>354.97265625</ele>
      </trkpt>
      <trkpt lat="49.669394893571734" lon="5.517015354707837">
        <ele>355.73828125</ele>
      </trkpt>
      <trkpt lat="49.66954761184752" lon="5.517453644424677">
        <ele>355.76171875</ele>
      </trkpt>
      <trkpt lat="49.669556664302945" lon="5.51786377094686">
        <ele>356.7734375</ele>
      </trkpt>
      <trkpt lat="49.669538643211126" lon="5.518160741776228">
        <ele>357.75390625</ele>
      </trkpt>
      <trkpt lat="49.669314092025161" lon="5.518669774755836">
        <ele>359.6875</ele>
      </trkpt>
      <trkpt lat="49.669170342385769" lon="5.518980827182531">
        <ele>360.49609375</ele>
      </trkpt>
      <trkpt lat="49.669251227751374" lon="5.519716171547771">
        <ele>356.05859375</ele>
      </trkpt>
      <trkpt lat="49.669844079762697" lon="5.520536256954074">
        <ele>348.96875</ele>
      </trkpt>
      <trkpt lat="49.670392088592052" lon="5.521328179165721">
        <ele>344.83203125</ele>
      </trkpt>
      <trkpt lat="49.670823253691196" lon="5.521936202421784">
        <ele>343.64453125</ele>
      </trkpt>
      <trkpt lat="49.671119721606374" lon="5.5225018132478">
        <ele>343.1015625</ele>
      </trkpt>
      <trkpt lat="49.671137658879161" lon="5.522544225677848">
        <ele>343.05859375</ele>
      </trkpt>
      <trkpt lat="49.669664455577731" lon="5.522869443520904">
        <ele>352.515625</ele>
      </trkpt>
      <trkpt lat="49.66861336492002" lon="5.523081589490175">
        <ele>358.86328125</ele>
      </trkpt>
      <trkpt lat="49.668444050475955" lon="5.522770453244448">
        <ele>360.3671875</ele>
      </trkpt>
      <trkpt lat="49.668417060747743" lon="5.522388657554984">
        <ele>360.71484375</ele>
      </trkpt>
      <trkpt lat="49.66817457228899" lon="5.521695809438825">
        <ele>361.51171875</ele>
      </trkpt>
      <trkpt lat="49.667860167101026" lon="5.520833227783442">
        <ele>361.53515625</ele>
      </trkpt>
      <trkpt lat="49.667527740821242" lon="5.519871739670634">
        <ele>363.8125</ele>
      </trkpt>
      <trkpt lat="49.667482813820243" lon="5.519489943981171">
        <ele>365.95703125</ele>
      </trkpt>
      <trkpt lat="49.667384075000882" lon="5.519164642319083">
        <ele>368.14453125</ele>
      </trkpt>
      <trkpt lat="49.667267231270671" lon="5.518811177462339">
        <ele>369.65625</ele>
      </trkpt>
      <trkpt lat="49.66724032536149" lon="5.518542537465692">
        <ele>370.41796875</ele>
      </trkpt>
      <trkpt lat="49.667114512994885" lon="5.518259648233652">
        <ele>370.90234375</ele>
      </trkpt>
      <trkpt lat="49.666970847174525" lon="5.518033420667052">
        <ele>370.453125</ele>
      </trkpt>
      <trkpt lat="49.666880993172526" lon="5.51786377094686">
        <ele>370.16796875</ele>
      </trkpt>
      <trkpt lat="49.666629452258348" lon="5.518005173653364">
        <ele>370.54296875</ele>
      </trkpt>
      <trkpt lat="49.666332984343171" lon="5.518061751499772">
        <ele>370.44921875</ele>
      </trkpt>
      <trkpt lat="49.666108433157206" lon="5.51808999851346">
        <ele>369.671875</ele>
      </trkpt>
      <trkpt lat="49.665946746245027" lon="5.5180758330971">
        <ele>369.07421875</ele>
      </trkpt>
      <trkpt lat="49.665856892243028" lon="5.518146576359868">
        <ele>368.8359375</ele>
      </trkpt>
      <trkpt lat="49.665398737415671" lon="5.518372803926468">
        <ele>368.015625</ele>
      </trkpt>
      <trkpt lat="49.665012499317527" lon="5.51878284662962">
        <ele>368.38671875</ele>
      </trkpt>
      <trkpt lat="49.664760958403349" lon="5.519065652042627">
        <ele>368.890625</ele>
      </trkpt>
      <trkpt lat="49.664635229855776" lon="5.519150560721755">
        <ele>368.94921875</ele>
      </trkpt>
      <trkpt lat="49.664581250399351" lon="5.519178807735443">
        <ele>368.83203125</ele>
      </trkpt>
      <trkpt lat="49.6642489079386" lon="5.519122229889035">
        <ele>369.03515625</ele>
      </trkpt>
      <trkpt lat="49.664087221026421" lon="5.519122229889035">
        <ele>369.05078125</ele>
      </trkpt>
      <trkpt lat="49.663907513022423" lon="5.519235385581851">
        <ele>368.41015625</ele>
      </trkpt>
      <trkpt lat="49.66385361738503" lon="5.519475778564811">
        <ele>366.9296875</ele>
      </trkpt>
      <trkpt lat="49.663862669840455" lon="5.519687840715051">
        <ele>365.67578125</ele>
      </trkpt>
      <trkpt lat="49.663647003471851" lon="5.520097967237234">
        <ele>363.5390625</ele>
      </trkpt>
      <trkpt lat="49.663449442014098" lon="5.520493844524026">
        <ele>362.11328125</ele>
      </trkpt>
      <trkpt lat="49.663332598283887" lon="5.520833227783442">
        <ele>360.9765625</ele>
      </trkpt>
      <trkpt lat="49.663188932463527" lon="5.520974630489945">
        <ele>360.94140625</ele>
      </trkpt>
      <trkpt lat="49.663108047097921" lon="5.521158445626497">
        <ele>360.96484375</ele>
      </trkpt>
      <trkpt lat="49.663125984370708" lon="5.521511994302273">
        <ele>360.89453125</ele>
      </trkpt>
      <trkpt lat="49.663233775645494" lon="5.521879624575377">
        <ele>360.50390625</ele>
      </trkpt>
      <trkpt lat="49.663332598283887" lon="5.522063439711928">
        <ele>360.05859375</ele>
      </trkpt>
      <trkpt lat="49.663467379286885" lon="5.52224725484848">
        <ele>359.36328125</ele>
      </trkpt>
      <trkpt lat="49.663638034835458" lon="5.5227280408144">
        <ele>358.390625</ele>
      </trkpt>
      <trkpt lat="49.663871638476849" lon="5.522926021367312">
        <ele>357.19140625</ele>
      </trkpt>
      <trkpt lat="49.664168106392026" lon="5.523237157613039">
        <ele>356.734375</ele>
      </trkpt>
      <trkpt lat="49.664338761940598" lon="5.523505797609687">
        <ele>357.453125</ele>
      </trkpt>
      <trkpt lat="49.664392657577991" lon="5.523689612746239">
        <ele>358.203125</ele>
      </trkpt>
      <trkpt lat="49.664392657577991" lon="5.523958252742887">
        <ele>359.44140625</ele>
      </trkpt>
      <trkpt lat="49.664329793304205" lon="5.524057243019342">
        <ele>360.109375</ele>
      </trkpt>
      <trkpt lat="49.663961492478848" lon="5.524212811142206">
        <ele>362.06640625</ele>
      </trkpt>
      <trkpt lat="49.663341650739312" lon="5.524566359817982">
        <ele>365.9453125</ele>
      </trkpt>
      <trkpt lat="49.66277570463717" lon="5.52484916523099">
        <ele>369.25</ele>
      </trkpt>
      <trkpt lat="49.66153216548264" lon="5.525513766333461">
        <ele>373.625</ele>
      </trkpt>
      <trkpt lat="49.661100748926401" lon="5.525074219331145">
        <ele>370.3125</ele>
      </trkpt>
      <trkpt lat="49.660615688189864" lon="5.524650011211634">
        <ele>369.61328125</ele>
      </trkpt>
      <trkpt lat="49.660319220274687" lon="5.524480361491442">
        <ele>369.2109375</ele>
      </trkpt>
      <trkpt lat="49.659780263900757" lon="5.524225803092122">
        <ele>369.23046875</ele>
      </trkpt>
      <trkpt lat="49.659349014982581" lon="5.523886419832707">
        <ele>368.73828125</ele>
      </trkpt>
      <trkpt lat="49.659106526523829" lon="5.522613795474172">
        <ele>367.3125</ele>
      </trkpt>
      <trkpt lat="49.658837048336864" lon="5.520874550566077">
        <ele>366.73046875</ele>
      </trkpt>
      <trkpt lat="49.658729173243046" lon="5.519771575927734">
        <ele>369.37109375</ele>
      </trkpt>
      <trkpt lat="49.658513590693474" lon="5.519686751067638">
        <ele>368.4375</ele>
      </trkpt>
      <trkpt lat="49.657866843044758" lon="5.520238196477294">
        <ele>364.5859375</ele>
      </trkpt>
      <trkpt lat="49.657085314393044" lon="5.520832138136029">
        <ele>360.2109375</ele>
      </trkpt>
      <trkpt lat="49.656573263928294" lon="5.521086612716317">
        <ele>360.59765625</ele>
      </trkpt>
      <trkpt lat="49.656276796013117" lon="5.521298758685589">
        <ele>361.1796875</ele>
      </trkpt>
      <trkpt lat="49.65614209882915" lon="5.520874550566077">
        <ele>361.96875</ele>
      </trkpt>
      <trkpt lat="49.656007317826152" lon="5.51985640078783">
        <ele>362.72265625</ele>
      </trkpt>
      <trkpt lat="49.656007317826152" lon="5.519050396978855">
        <ele>364.58203125</ele>
      </trkpt>
      <trkpt lat="49.655899526551366" lon="5.518456539139152">
        <ele>366.20703125</ele>
      </trkpt>
      <trkpt lat="49.65579173527658" lon="5.518117155879736">
        <ele>367.08984375</ele>
      </trkpt>
      <trkpt lat="49.655953422188759" lon="5.516971768811345">
        <ele>367.96875</ele>
      </trkpt>
      <trkpt lat="49.655865328386426" lon="5.516898427158594">
        <ele>368.23828125</ele>
      </trkpt>
      <trkpt lat="49.655676735565066" lon="5.516898427158594">
        <ele>368.53515625</ele>
      </trkpt>
      <trkpt lat="49.655541954562068" lon="5.516898427158594">
        <ele>368.83203125</ele>
      </trkpt>
      <trkpt lat="49.65540717355907" lon="5.516672199591994">
        <ele>369.5859375</ele>
      </trkpt>
      <trkpt lat="49.65521858073771" lon="5.516431806609035">
        <ele>370.4375</ele>
      </trkpt>
      <trkpt lat="49.654993945732713" lon="5.516262156888843">
        <ele>371.2421875</ele>
      </trkpt>
      <trkpt lat="49.654841311275959" lon="5.516290403902531">
        <ele>371.703125</ele>
      </trkpt>
      <trkpt lat="49.654697561636567" lon="5.516262156888843">
        <ele>372.1171875</ele>
      </trkpt>
      <trkpt lat="49.654598738998175" lon="5.515936939045787">
        <ele>372.3515625</ele>
      </trkpt>
      <trkpt lat="49.654383156448603" lon="5.515908608213067">
        <ele>372.87109375</ele>
      </trkpt>
      <trkpt lat="49.654185511171818" lon="5.516050010919571">
        <ele>373.34375</ele>
      </trkpt>
      <trkpt lat="49.653996834531426" lon="5.516163166612387">
        <ele>373.796875</ele>
      </trkpt>
      <trkpt lat="49.653745293617249" lon="5.516163166612387">
        <ele>374.2578125</ele>
      </trkpt>
      <trkpt lat="49.653421919792891" lon="5.516134835779667">
        <ele>374.69921875</ele>
      </trkpt>
      <trkpt lat="49.653134504333138" lon="5.516092423349619">
        <ele>374.96484375</ele>
      </trkpt>
      <trkpt lat="49.652882963418961" lon="5.516163166612387">
        <ele>375.05078125</ele>
      </trkpt>
      <trkpt lat="49.652550537139177" lon="5.516488384455442">
        <ele>375.82421875</ele>
      </trkpt>
      <trkpt lat="49.652325985953212" lon="5.516629787161946">
        <ele>376.0625</ele>
      </trkpt>
      <trkpt lat="49.651921726763248" lon="5.516445972025394">
        <ele>372.75</ele>
      </trkpt>
      <trkpt lat="49.651813935488462" lon="5.516516631469131">
        <ele>372.0703125</ele>
      </trkpt>
      <trkpt lat="49.651724081486464" lon="5.516841933131218">
        <ele>371.81640625</ele>
      </trkpt>
      <trkpt lat="49.651804966852069" lon="5.517492368817329">
        <ele>372.83984375</ele>
      </trkpt>
      <trkpt lat="49.651876799762249" lon="5.517761008813977">
        <ele>372.6796875</ele>
      </trkpt>
      <trkpt lat="49.651867831125855" lon="5.518057979643345">
        <ele>372.08984375</ele>
      </trkpt>
      <trkpt lat="49.651769008487463" lon="5.518453940749168">
        <ele>371.125</ele>
      </trkpt>
      <trkpt lat="49.651795998215675" lon="5.519047798588872">
        <ele>370.5546875</ele>
      </trkpt>
      <trkpt lat="49.651867831125855" lon="5.520603228360415">
        <ele>371.54296875</ele>
      </trkpt>
      <trkpt lat="49.65199364349246" lon="5.521989008411765">
        <ele>371.640625</ele>
      </trkpt>
      <trkpt lat="49.652047539129853" lon="5.52327579818666">
        <ele>372.51953125</ele>
      </trkpt>
      <trkpt lat="49.65206547640264" lon="5.524067636579275">
        <ele>372.765625</ele>
      </trkpt>
      <trkpt lat="49.652218194678426" lon="5.525835212320089">
        <ele>371.94921875</ele>
      </trkpt>
      <trkpt lat="49.652263121679425" lon="5.526400823146105">
        <ele>370.54296875</ele>
      </trkpt>
      <trkpt lat="49.652299080044031" lon="5.526895774528384">
        <ele>369.0078125</ele>
      </trkpt>
      <trkpt lat="49.652263121679425" lon="5.52744721993804">
        <ele>367.06640625</ele>
      </trkpt>
      <trkpt lat="49.652370912954211" lon="5.528267389163375">
        <ele>365.75</ele>
      </trkpt>
      <trkpt lat="49.652343923225999" lon="5.528635019436479">
        <ele>365.72265625</ele>
      </trkpt>
      <trkpt lat="49.652424808591604" lon="5.529214795678854">
        <ele>365.1796875</ele>
      </trkpt>
      <trkpt lat="49.652415839955211" lon="5.529455188661814">
        <ele>364.6953125</ele>
      </trkpt>
      <trkpt lat="49.651688206940889" lon="5.529808653518558">
        <ele>364.91796875</ele>
      </trkpt>
      <trkpt lat="49.65075102634728" lon="5.530296480283141">
        <ele>368.42578125</ele>
      </trkpt>
      <trkpt lat="49.650023393332958" lon="5.530657069757581">
        <ele>373.40234375</ele>
      </trkpt>
      <trkpt lat="49.649812756106257" lon="5.530631253495812">
        <ele>374.46484375</ele>
      </trkpt>
      <trkpt lat="49.649749808013439" lon="5.530574675649405">
        <ele>374.7265625</ele>
      </trkpt>
      <trkpt lat="49.649444371461868" lon="5.530588757246733">
        <ele>375.20703125</ele>
      </trkpt>
      <trkpt lat="49.649282684549689" lon="5.530546344816685">
        <ele>375.42578125</ele>
      </trkpt>
      <trkpt lat="49.648941373452544" lon="5.530475685372949">
        <ele>375.95703125</ele>
      </trkpt>
      <trkpt lat="49.648680863901973" lon="5.530433272942901">
        <ele>374.55078125</ele>
      </trkpt>
      <trkpt lat="49.648312563076615" lon="5.530277704820037">
        <ele>372.5546875</ele>
      </trkpt>
      <trkpt lat="49.647926241159439" lon="5.530150467529893">
        <ele>370.65234375</ele>
      </trkpt>
      <trkpt lat="49.647818449884653" lon="5.530065558850765">
        <ele>370.20703125</ele>
      </trkpt>
      <trkpt lat="49.64736926369369" lon="5.529994899407029">
        <ele>367.671875</ele>
      </trkpt>
      <trkpt lat="49.646974056959152" lon="5.529839331284165">
        <ele>365.8203125</ele>
      </trkpt>
      <trkpt lat="49.646695526316762" lon="5.52952827885747">
        <ele>365.3828125</ele>
      </trkpt>
      <trkpt lat="49.646569797769189" lon="5.529344463720918">
        <ele>365.5546875</ele>
      </trkpt>
      <trkpt lat="49.646300319582224" lon="5.52904749289155">
        <ele>365.671875</ele>
      </trkpt>
      <trkpt lat="49.646030841395259" lon="5.52904749289155">
        <ele>363.98828125</ele>
      </trkpt>
      <trkpt lat="49.645752310752869" lon="5.52882126532495">
        <ele>362.90234375</ele>
      </trkpt>
      <trkpt lat="49.645662540569901" lon="5.528651531785727">
        <ele>362.7265625</ele>
      </trkpt>
      <trkpt lat="49.645491801202297" lon="5.528623284772039">
        <ele>361.6796875</ele>
      </trkpt>
      <trkpt lat="49.645303208380938" lon="5.528623284772039">
        <ele>360.5859375</ele>
      </trkpt>
      <trkpt lat="49.645060636103153" lon="5.528481882065535">
        <ele>359.19921875</ele>
      </trkpt>
      <trkpt lat="49.644755199551582" lon="5.528269736096263">
        <ele>356.95703125</ele>
      </trkpt>
      <trkpt lat="49.644629471004009" lon="5.528425304219127">
        <ele>356.66796875</ele>
      </trkpt>
      <trkpt lat="49.644512627273798" lon="5.528679862618446">
        <ele>356.33203125</ele>
      </trkpt>
      <trkpt lat="49.644557554274797" lon="5.529104070737958">
        <ele>356.81640625</ele>
      </trkpt>
      <trkpt lat="49.644629471004009" lon="5.52974034100771">
        <ele>355.91015625</ele>
      </trkpt>
      <trkpt lat="49.644737262278795" lon="5.530475685372949">
        <ele>355.91796875</ele>
      </trkpt>
      <trkpt lat="49.644827032461762" lon="5.531154368072748">
        <ele>355.89453125</ele>
      </trkpt>
      <trkpt lat="49.644889980554581" lon="5.531705897301436">
        <ele>355.49609375</ele>
      </trkpt>
      <trkpt lat="49.644970782101154" lon="5.532299755141139">
        <ele>355.7890625</ele>
      </trkpt>
      <trkpt lat="49.645024677738547" lon="5.532639138400555">
        <ele>356.05078125</ele>
      </trkpt>
      <trkpt lat="49.645267250016332" lon="5.532639138400555">
        <ele>356.98828125</ele>
      </trkpt>
      <trkpt lat="49.645222323015332" lon="5.532766375690699">
        <ele>356.90234375</ele>
      </trkpt>
      <trkpt lat="49.645303208380938" lon="5.532808871939778">
        <ele>357.26171875</ele>
      </trkpt>
      <trkpt lat="49.645563717931509" lon="5.532667469233275">
        <ele>358.1640625</ele>
      </trkpt>
      <trkpt lat="49.645761279389262" lon="5.532582560554147">
        <ele>358.9296875</ele>
      </trkpt>
      <trkpt lat="49.646255392581224" lon="5.532695716246963">
        <ele>361.05078125</ele>
      </trkpt>
      <trkpt lat="49.646803317591548" lon="5.532822953537107">
        <ele>363.55859375</ele>
      </trkpt>
      <trkpt lat="49.647405222058296" lon="5.53275229409337">
        <ele>366.94140625</ele>
      </trkpt>
      <trkpt lat="49.647908303886652" lon="5.532709881663322">
        <ele>370.8046875</ele>
      </trkpt>
      <trkpt lat="49.648177782073617" lon="5.532879531383514">
        <ele>373.62890625</ele>
      </trkpt>
      <trkpt lat="49.64858204126358" lon="5.533275492489338">
        <ele>377.9140625</ele>
      </trkpt>
      <trkpt lat="49.648977247998118" lon="5.533049264922738">
        <ele>379.23046875</ele>
      </trkpt>
      <trkpt lat="49.649408496916294" lon="5.532709881663322">
        <ele>379.3125</ele>
      </trkpt>
      <trkpt lat="49.649453423917294" lon="5.532709881663322">
        <ele>379.4453125</ele>
      </trkpt>
      <trkpt lat="49.649417465552688" lon="5.533317904919386">
        <ele>380.671875</ele>
      </trkpt>
      <trkpt lat="49.649372538551688" lon="5.533784525468946">
        <ele>382.046875</ele>
      </trkpt>
      <trkpt lat="49.649345632642508" lon="5.534095577895641">
        <ele>382.93359375</ele>
      </trkpt>
      <trkpt lat="49.649435402825475" lon="5.53505714982748">
        <ele>380.84375</ele>
      </trkpt>
      <trkpt lat="49.649650985375047" lon="5.536273280158639">
        <ele>372.90234375</ele>
      </trkpt>
      <trkpt lat="49.649911494925618" lon="5.537517573684454">
        <ele>366.984375</ele>
      </trkpt>
      <trkpt lat="49.650073265656829" lon="5.538331875577569">
        <ele>364.27734375</ele>
      </trkpt>
      <trkpt lat="49.650207962840796" lon="5.538954064249992">
        <ele>362.5234375</ele>
      </trkpt>
      <trkpt lat="49.650423545390368" lon="5.539604499936104">
        <ele>362.109375</ele>
      </trkpt>
      <trkpt lat="49.650549357756972" lon="5.540099367499352">
        <ele>361.70703125</ele>
      </trkpt>
      <trkpt lat="49.650567295029759" lon="5.541018527001143">
        <ele>360.01953125</ele>
      </trkpt>
      <trkpt lat="49.65052236802876" lon="5.542361894622445">
        <ele>360.81640625</ele>
      </trkpt>
      <trkpt lat="49.650549357756972" lon="5.543521363288164">
        <ele>360.453125</ele>
      </trkpt>
      <trkpt lat="49.651357037946582" lon="5.543248699977994">
        <ele>358.34375</ele>
      </trkpt>
      <trkpt lat="49.651985848322511" lon="5.543064884841442">
        <ele>357.8046875</ele>
      </trkpt>
      <trkpt lat="49.652435034513474" lon="5.54286690428853">
        <ele>358.3046875</ele>
      </trkpt>
      <trkpt lat="49.652524804696441" lon="5.542838573455811">
        <ele>358.31640625</ele>
      </trkpt>
      <trkpt lat="49.652776345610619" lon="5.542697170749307">
        <ele>358.3828125</ele>
      </trkpt>
      <trkpt lat="49.653054792433977" lon="5.542640592902899">
        <ele>357.84375</ele>
      </trkpt>
      <trkpt lat="49.653342291712761" lon="5.542555768042803">
        <ele>356.7734375</ele>
      </trkpt>
      <trkpt lat="49.653818383812904" lon="5.542414365336299">
        <ele>354.40234375</ele>
      </trkpt>
      <trkpt lat="49.654016029089689" lon="5.542612345889211">
        <ele>354.19140625</ele>
      </trkpt>
      <trkpt lat="49.654222643002868" lon="5.542923482134938">
        <ele>354.56640625</ele>
      </trkpt>
      <trkpt lat="49.654411319643259" lon="5.543262781575322">
        <ele>355.109375</ele>
      </trkpt>
      <trkpt lat="49.654537048190832" lon="5.543757732957602">
        <ele>355.171875</ele>
      </trkpt>
      <trkpt lat="49.654581975191832" lon="5.544196106493473">
        <ele>355.41015625</ele>
      </trkpt>
      <trkpt lat="49.654573006555438" lon="5.54587877355516">
        <ele>354.61328125</ele>
      </trkpt>
      <trkpt lat="49.65467182919383" lon="5.546713108196855">
        <ele>357.1171875</ele>
      </trkpt>
      <trkpt lat="49.654734693467617" lon="5.547179728746414">
        <ele>356.33203125</ele>
      </trkpt>
      <trkpt lat="49.654725724831223" lon="5.547420121729374">
        <ele>356.01953125</ele>
      </trkpt>
      <trkpt lat="49.65467182919383" lon="5.54775950498879">
        <ele>355.51171875</ele>
      </trkpt>
      <trkpt lat="49.654653808102012" lon="5.547943320125341">
        <ele>355.234375</ele>
      </trkpt>
      <trkpt lat="49.654797557741404" lon="5.548706911504269">
        <ele>354.37109375</ele>
      </trkpt>
      <trkpt lat="49.654698735103011" lon="5.549272522330284">
        <ele>353.88671875</ele>
      </trkpt>
      <trkpt lat="49.654528079554439" lon="5.549710812047124">
        <ele>353.4765625</ele>
      </trkpt>
      <trkpt lat="49.654105883091688" lon="5.550191598013043">
        <ele>351.75390625</ele>
      </trkpt>
      <trkpt lat="49.653414124622941" lon="5.550559312105179">
        <ele>351.4140625</ele>
      </trkpt>
      <trkpt lat="49.65315361507237" lon="5.550672383978963">
        <ele>351.84765625</ele>
      </trkpt>
      <trkpt lat="49.652893105521798" lon="5.550629971548915">
        <ele>352.44921875</ele>
      </trkpt>
      <trkpt lat="49.652803335338831" lon="5.550644136965275">
        <ele>352.6640625</ele>
      </trkpt>
      <trkpt lat="49.653289737179875" lon="5.551708890125155">
        <ele>353.02734375</ele>
      </trkpt>
      <trkpt lat="49.653334664180875" lon="5.552133098244667">
        <ele>353.1875</ele>
      </trkpt>
      <trkpt lat="49.653370538726449" lon="5.552543224766851">
        <ele>353.0546875</ele>
      </trkpt>
      <trkpt lat="49.653253778815269" lon="5.552684627473354">
        <ele>352.421875</ele>
      </trkpt>
      <trkpt lat="49.653118997812271" lon="5.552910855039954">
        <ele>351.4140625</ele>
      </trkpt>
      <trkpt lat="49.653415465727448" lon="5.553137082606554">
        <ele>351.26171875</ele>
      </trkpt>
      <trkpt lat="49.653361570090055" lon="5.553773436695337">
        <ele>348.703125</ele>
      </trkpt>
      <trkpt lat="49.653253778815269" lon="5.55486224591732">
        <ele>347.0234375</ele>
      </trkpt>
      <trkpt lat="49.65313701890409" lon="5.555738909170032">
        <ele>345.82421875</ele>
      </trkpt>
      <trkpt lat="49.653110029175878" lon="5.556629737839103">
        <ele>345.875</ele>
      </trkpt>
      <trkpt lat="49.653226872906089" lon="5.557690300047398">
        <ele>344.8671875</ele>
      </trkpt>
      <trkpt lat="49.653231902047992" lon="5.558161363005638">
        <ele>345.625</ele>
      </trkpt>
      <trkpt lat="49.65329485014081" lon="5.558537459000945">
        <ele>347.21875</ele>
      </trkpt>
      <trkpt lat="49.653338855132461" lon="5.558834429830313">
        <ele>348.97265625</ele>
      </trkpt>
      <trkpt lat="49.653181610628963" lon="5.558933420106769">
        <ele>349.3046875</ele>
      </trkpt>
      <trkpt lat="49.652911210432649" lon="5.559121510013938">
        <ele>350.01953125</ele>
      </trkpt>
      <trkpt lat="49.65271633118391" lon="5.559368943795562">
        <ele>350.61328125</ele>
      </trkpt>
      <trkpt lat="49.652515081688762" lon="5.559507496654987">
        <ele>350.94921875</ele>
      </trkpt>
      <trkpt lat="49.652357921004295" lon="5.55947782471776">
        <ele>350.875</ele>
      </trkpt>
      <trkpt lat="49.652257254347205" lon="5.559319406747818">
        <ele>350.49609375</ele>
      </trkpt>
      <trkpt lat="49.652074947953224" lon="5.559091754257679">
        <ele>350.203125</ele>
      </trkpt>
      <trkpt lat="49.651923989877105" lon="5.558735439553857">
        <ele>350.2109375</ele>
      </trkpt>
      <trkpt lat="49.651754172518849" lon="5.55839890614152">
        <ele>350.0859375</ele>
      </trkpt>
      <trkpt lat="49.651540433987975" lon="5.558082154020667">
        <ele>350</ele>
      </trkpt>
      <trkpt lat="49.651464996859431" lon="5.55790395475924">
        <ele>350</ele>
      </trkpt>
      <trkpt lat="49.651301465928555" lon="5.557478405535221">
        <ele>350</ele>
      </trkpt>
      <trkpt lat="49.651226028800011" lon="5.55725066922605">
        <ele>349.58203125</ele>
      </trkpt>
      <trkpt lat="49.651056211441755" lon="5.557032907381654">
        <ele>349.21875</ele>
      </trkpt>
      <trkpt lat="49.650810956954956" lon="5.556894354522228">
        <ele>349.15234375</ele>
      </trkpt>
      <trkpt lat="49.65060350485146" lon="5.556646920740604">
        <ele>349.015625</ele>
      </trkpt>
      <trkpt lat="49.650427401065826" lon="5.55647861212492">
        <ele>348.94140625</ele>
      </trkpt>
      <trkpt lat="49.650194719433784" lon="5.556330168619752">
        <ele>348.68359375</ele>
      </trkpt>
      <trkpt lat="49.649987267330289" lon="5.556231178343296">
        <ele>348.34375</ele>
      </trkpt>
      <trkpt lat="49.649830022826791" lon="5.556003525853157">
        <ele>347.67578125</ele>
      </trkpt>
      <trkpt lat="49.649528190493584" lon="5.556023307144642">
        <ele>346.94140625</ele>
      </trkpt>
      <trkpt lat="49.649358373135328" lon="5.556340059265494">
        <ele>347.5625</ele>
      </trkpt>
      <trkpt lat="49.649106916040182" lon="5.556488502770662">
        <ele>347.6953125</ele>
      </trkpt>
      <trkpt lat="49.64887373149395" lon="5.556993344798684">
        <ele>347.71875</ele>
      </trkpt>
      <trkpt lat="49.648735346272588" lon="5.55743875913322">
        <ele>346.9140625</ele>
      </trkpt>
      <trkpt lat="49.648559326305985" lon="5.557874282822013">
        <ele>344.83203125</ele>
      </trkpt>
      <trkpt lat="49.648270066827536" lon="5.558012835681438">
        <ele>342.765625</ele>
      </trkpt>
      <trkpt lat="49.648301498964429" lon="5.558458333835006">
        <ele>341.99609375</ele>
      </trkpt>
      <trkpt lat="49.648427227512002" lon="5.558656230568886">
        <ele>342.53515625</ele>
      </trkpt>
      <trkpt lat="49.648666195571423" lon="5.558903748169541">
        <ele>344.05078125</ele>
      </trkpt>
      <trkpt lat="49.648848585784435" lon="5.559161072596908">
        <ele>345.21484375</ele>
      </trkpt>
      <trkpt lat="49.64896802790463" lon="5.559319406747818">
        <ele>345.2265625</ele>
      </trkpt>
      <trkpt lat="49.649068610742688" lon="5.559646133333445">
        <ele>344.22265625</ele>
      </trkpt>
      <trkpt lat="49.6491629909724" lon="5.559992557391524">
        <ele>343.65234375</ele>
      </trkpt>
      <trkpt lat="49.649238428100944" lon="5.56028944440186">
        <ele>345.17578125</ele>
      </trkpt>
      <trkpt lat="49.649138683453202" lon="5.560205793008208">
        <ele>344.2734375</ele>
      </trkpt>
      <trkpt lat="49.64892310090363" lon="5.559717966243625">
        <ele>343.1328125</ele>
      </trkpt>
      <trkpt lat="49.64847844094038" lon="5.559336170554161">
        <ele>341.671875</ele>
      </trkpt>
      <trkpt lat="49.648087676614523" lon="5.558996787294745">
        <ele>339.31640625</ele>
      </trkpt>
      <trkpt lat="49.64761602692306" lon="5.558318104594946">
        <ele>335.98828125</ele>
      </trkpt>
      <trkpt lat="49.64726566337049" lon="5.557448482140899">
        <ele>334.1640625</ele>
      </trkpt>
      <trkpt lat="49.646888393908739" lon="5.556939365342259">
        <ele>335.6640625</ele>
      </trkpt>
      <trkpt lat="49.646201161667705" lon="5.55657877586782">
        <ele>336.45703125</ele>
      </trkpt>
      <trkpt lat="49.645877787843347" lon="5.556430332362652">
        <ele>336.44921875</ele>
      </trkpt>
      <trkpt lat="49.645500518381596" lon="5.556515157222748">
        <ele>335.27734375</ele>
      </trkpt>
      <trkpt lat="49.645136659964919" lon="5.55626068264246">
        <ele>338.51953125</ele>
      </trkpt>
      <trkpt lat="49.644570713862777" lon="5.555242532864213">
        <ele>344.1015625</ele>
      </trkpt>
      <trkpt lat="49.644099147990346" lon="5.554542560130358">
        <ele>347.37109375</ele>
      </trkpt>
      <trkpt lat="49.643235895782709" lon="5.554160764440894">
        <ele>346.39453125</ele>
      </trkpt>
      <trkpt lat="49.642305336892605" lon="5.553291141986847">
        <ele>347.10546875</ele>
      </trkpt>
      <trkpt lat="49.641766380518675" lon="5.552782109007239">
        <ele>343.39453125</ele>
      </trkpt>
      <trkpt lat="49.641362121328712" lon="5.552124548703432">
        <ele>342.125</ele>
      </trkpt>
      <trkpt lat="49.641091804951429" lon="5.551636721938849">
        <ele>340.015625</ele>
      </trkpt>
      <trkpt lat="49.641064899042249" lon="5.551318544894457">
        <ele>339.5234375</ele>
      </trkpt>
      <trkpt lat="49.640674134716392" lon="5.550724687054753">
        <ele>335.1484375</ele>
      </trkpt>
      <trkpt lat="49.640350677073002" lon="5.549855064600706">
        <ele>336.34375</ele>
      </trkpt>
      <trkpt lat="49.640202485024929" lon="5.549409650266171">
        <ele>337.5</ele>
      </trkpt>
      <trkpt lat="49.639798225834966" lon="5.548921739682555">
        <ele>335.63671875</ele>
      </trkpt>
      <trkpt lat="49.639555737376213" lon="5.548243056982756">
        <ele>335.61328125</ele>
      </trkpt>
      <trkpt lat="49.639434451237321" lon="5.548052117228508">
        <ele>335.68359375</ele>
      </trkpt>
      <trkpt lat="49.639111077412963" lon="5.547712733969092">
        <ele>335.296875</ele>
      </trkpt>
      <trkpt lat="49.638808742165565" lon="5.547152487561107">
        <ele>334.015625</ele>
      </trkpt>
      <trkpt lat="49.638606570661068" lon="5.546982837840915">
        <ele>333.734375</ele>
      </trkpt>
      <trkpt lat="49.638458378612995" lon="5.546919219195843">
        <ele>333.7890625</ele>
      </trkpt>
      <trkpt lat="49.63818890042603" lon="5.546622248366475">
        <ele>333.76171875</ele>
      </trkpt>
      <trkpt lat="49.637434277683496" lon="5.546155627816916">
        <ele>337.35546875</ele>
      </trkpt>
      <trkpt lat="49.637110903859138" lon="5.546049596741796">
        <ele>338.42578125</ele>
      </trkpt>
      <trkpt lat="49.636571947485209" lon="5.546092009171844">
        <ele>338.5703125</ele>
      </trkpt>
      <trkpt lat="49.635897371917963" lon="5.54592227563262">
        <ele>337.67578125</ele>
      </trkpt>
      <trkpt lat="49.635331425815821" lon="5.545646594837308">
        <ele>335.88671875</ele>
      </trkpt>
      <trkpt lat="49.63504845276475" lon="5.545434448868036">
        <ele>335.02734375</ele>
      </trkpt>
      <trkpt lat="49.634094927459955" lon="5.545625388622284">
        <ele>332.44921875</ele>
      </trkpt>
      <trkpt lat="49.633097732439637" lon="5.545943481847644">
        <ele>330.8203125</ele>
      </trkpt>
      <trkpt lat="49.632733957841992" lon="5.54607080295682">
        <ele>330.375</ele>
      </trkpt>
      <trkpt lat="49.63207371532917" lon="5.546219246461988">
        <ele>330.109375</ele>
      </trkpt>
      <trkpt lat="49.631709856912494" lon="5.546198040246964">
        <ele>330.3359375</ele>
      </trkpt>
      <trkpt lat="49.631238291040063" lon="5.546346483752132">
        <ele>330.5546875</ele>
      </trkpt>
      <trkpt lat="49.630712745711207" lon="5.546579835936427">
        <ele>330.90625</ele>
      </trkpt>
      <trkpt lat="49.63061367161572" lon="5.545307211577892">
        <ele>330.8515625</ele>
      </trkpt>
      <trkpt lat="49.630546281114221" lon="5.544373886659741">
        <ele>330.6015625</ele>
      </trkpt>
      <trkpt lat="49.630600176751614" lon="5.543249789625406">
        <ele>329.0234375</ele>
      </trkpt>
      <trkpt lat="49.630532786250114" lon="5.542231639847159">
        <ele>329.07421875</ele>
      </trkpt>
      <trkpt lat="49.630559775978327" lon="5.541383223608136">
        <ele>329.0625</ele>
      </trkpt>
      <trkpt lat="49.630586681887507" lon="5.541022634133697">
        <ele>329.01953125</ele>
      </trkpt>
      <trkpt lat="49.630505880340934" lon="5.540683250874281">
        <ele>329.546875</ele>
      </trkpt>
      <trkpt lat="49.630600176751614" lon="5.540153011679649">
        <ele>330.52734375</ele>
      </trkpt>
      <trkpt lat="49.630977446213365" lon="5.539156068116427">
        <ele>327.7265625</ele>
      </trkpt>
      <trkpt lat="49.631179617717862" lon="5.538286445662379">
        <ele>325.1171875</ele>
      </trkpt>
      <trkpt lat="49.631188167259097" lon="5.537554454058409">
        <ele>325.8984375</ele>
      </trkpt>
      <trkpt lat="49.63124206289649" lon="5.537066627293825">
        <ele>327.86328125</ele>
      </trkpt>
      <trkpt lat="49.631072832271457" lon="5.53627721965313">
        <ele>328.3828125</ele>
      </trkpt>
      <trkpt lat="49.630924556404352" lon="5.535513628274202">
        <ele>328.5234375</ele>
      </trkpt>
      <trkpt lat="49.630816765129566" lon="5.535195451229811">
        <ele>328.58203125</ele>
      </trkpt>
      <trkpt lat="49.6306820679456" lon="5.534601593390107">
        <ele>329.2421875</ele>
      </trkpt>
      <trkpt lat="49.630547286942601" lon="5.5340925604105">
        <ele>330.00390625</ele>
      </trkpt>
      <trkpt lat="49.630479896441102" lon="5.533901620656252">
        <ele>330.71484375</ele>
      </trkpt>
      <trkpt lat="49.630452990531921" lon="5.533435000106692">
        <ele>332.9609375</ele>
      </trkpt>
      <trkpt lat="49.630533792078495" lon="5.532756233587861">
        <ele>337.69140625</ele>
      </trkpt>
      <trkpt lat="49.630479896441102" lon="5.532183581963182">
        <ele>340.546875</ele>
      </trkpt>
      <trkpt lat="49.630412505939603" lon="5.531695755198598">
        <ele>341.91015625</ele>
      </trkpt>
      <trkpt lat="49.630399094894528" lon="5.531356371939182">
        <ele>342.06640625</ele>
      </trkpt>
      <trkpt lat="49.630372105166316" lon="5.531271547079086">
        <ele>341.93359375</ele>
      </trkpt>
      <trkpt lat="49.630762869492173" lon="5.531738167628646">
        <ele>342.23046875</ele>
      </trkpt>
      <trkpt lat="49.630951546132565" lon="5.531950229778886">
        <ele>341.15234375</ele>
      </trkpt>
      <trkpt lat="49.63166568428278" lon="5.532077550888062">
        <ele>339.37109375</ele>
      </trkpt>
      <trkpt lat="49.63211034424603" lon="5.532374437898397">
        <ele>338.21875</ele>
      </trkpt>
      <trkpt lat="49.632447212934494" lon="5.532628996297717">
        <ele>339.12109375</ele>
      </trkpt>
      <trkpt lat="49.632635889574885" lon="5.532862348482013">
        <ele>340.53515625</ele>
      </trkpt>
      <trkpt lat="49.633134445175529" lon="5.532968379557133">
        <ele>342.96484375</ele>
      </trkpt>
      <trkpt lat="49.6334174182266" lon="5.533074410632253">
        <ele>344.19140625</ele>
      </trkpt>
      <trkpt lat="49.6336211822927" lon="5.533881336450577">
        <ele>343.60546875</ele>
      </trkpt>
      <trkpt lat="49.633755963295698" lon="5.534644927829504">
        <ele>341.65625</ele>
      </trkpt>
      <trkpt lat="49.633836764842272" lon="5.535281198099256">
        <ele>340.05859375</ele>
      </trkpt>
      <trkpt lat="49.634196097031236" lon="5.535224704071879">
        <ele>340.58984375</ele>
      </trkpt>
      <trkpt lat="49.634753074496984" lon="5.534998392686248">
        <ele>341.859375</ele>
      </trkpt>
      <trkpt lat="49.635004615411162" lon="5.534871155396104">
        <ele>342.29296875</ele>
      </trkpt>
      <trkpt lat="49.6353998221457" lon="5.534404534846544">
        <ele>343.48828125</ele>
      </trkpt>
      <trkpt lat="49.635938862338662" lon="5.533683355897665">
        <ele>344.1171875</ele>
      </trkpt>
      <trkpt lat="49.636361058801413" lon="5.533160157501698">
        <ele>344.21484375</ele>
      </trkpt>
      <trkpt lat="49.636718714609742" lon="5.532904760912061">
        <ele>344.80078125</ele>
      </trkpt>
      <trkpt lat="49.637149879708886" lon="5.532904760912061">
        <ele>345.28515625</ele>
      </trkpt>
      <trkpt lat="49.637661930173635" lon="5.533138029277325">
        <ele>342.52734375</ele>
      </trkpt>
      <trkpt lat="49.638276742771268" lon="5.533175831660628">
        <ele>340.609375</ele>
      </trkpt>
      <trkpt lat="49.638290237635374" lon="5.532306209206581">
        <ele>341.84765625</ele>
      </trkpt>
      <trkpt lat="49.638330638408661" lon="5.531669855117798">
        <ele>343.046875</ele>
      </trkpt>
      <trkpt lat="49.638519315049052" lon="5.530630582943559">
        <ele>344.171875</ele>
      </trkpt>
      <trkpt lat="49.63858662173152" lon="5.52944278344512">
        <ele>345.25390625</ele>
      </trkpt>
      <trkpt lat="49.638546220958233" lon="5.528848841786385">
        <ele>346.28125</ele>
      </trkpt>
      <trkpt lat="49.638546220958233" lon="5.528445839881897">
        <ele>347.46875</ele>
      </trkpt>
      <trkpt lat="49.638667507097125" lon="5.527915600687265">
        <ele>348.84765625</ele>
      </trkpt>
      <trkpt lat="49.639044776558876" lon="5.526791419833899">
        <ele>352.4296875</ele>
      </trkpt>
      <trkpt lat="49.639233453199267" lon="5.525561207905412">
        <ele>352.69921875</ele>
      </trkpt>
      <trkpt lat="49.63935473933816" lon="5.524330995976925">
        <ele>354.734375</ele>
      </trkpt>
      <trkpt lat="49.63979939930141" lon="5.523228021338582">
        <ele>358.11328125</ele>
      </trkpt>
      <trkpt lat="49.640419241040945" lon="5.521976603195071">
        <ele>359.96875</ele>
      </trkpt>
      <trkpt lat="49.640998598188162" lon="5.520937331020832">
        <ele>360.8515625</ele>
      </trkpt>
      <trkpt lat="49.641429847106338" lon="5.520152533426881">
        <ele>363.10546875</ele>
      </trkpt>
      <trkpt lat="49.641699325293303" lon="5.519176796078682">
        <ele>365.875</ele>
      </trkpt>
      <trkpt lat="49.641726231202483" lon="5.518349586054683">
        <ele>365.0546875</ele>
      </trkpt>
      <trkpt lat="49.641914907842875" lon="5.517352726310492">
        <ele>365.125</ele>
      </trkpt>
      <trkpt lat="49.642615634948015" lon="5.515677100047469">
        <ele>361.25390625</ele>
      </trkpt>
      <trkpt lat="49.642871618270874" lon="5.514510506764054">
        <ele>358.1484375</ele>
      </trkpt>
      <trkpt lat="49.643046800047159" lon="5.514323674142361">
        <ele>357.48828125</ele>
      </trkpt>
      <trkpt lat="49.643774433061481" lon="5.512690460309386">
        <ele>352.83203125</ele>
      </trkpt>
      <trkpt lat="49.643963109701872" lon="5.511990487575531">
        <ele>351.40625</ele>
      </trkpt>
      <trkpt lat="49.644057406112552" lon="5.511778425425291">
        <ele>350.87890625</ele>
      </trkpt>
      <trkpt lat="49.644057406112552" lon="5.511778425425291">
        <ele>350.87890625</ele>
      </trkpt>
      <trkpt lat="49.643531860783696" lon="5.511820837855339">
        <ele>350.28125</ele>
      </trkpt>
      <trkpt lat="49.643181497231126" lon="5.511778425425291">
        <ele>349.75</ele>
      </trkpt>
      <trkpt lat="49.642736837267876" lon="5.511693516746163">
        <ele>349.30078125</ele>
      </trkpt>
      <trkpt lat="49.642332661896944" lon="5.511714722961187">
        <ele>349.5078125</ele>
      </trkpt>
      <trkpt lat="49.641820611432195" lon="5.511736012995243">
        <ele>349.1015625</ele>
      </trkpt>
      <trkpt lat="49.641618439927697" lon="5.51109965890646">
        <ele>349.04296875</ele>
      </trkpt>
      <trkpt lat="49.641685830429196" lon="5.510021997615695">
        <ele>347.4453125</ele>
      </trkpt>
      <trkpt lat="49.641955308616161" lon="5.508006988093257">
        <ele>346.96484375</ele>
      </trkpt>
      <trkpt lat="49.642036193981767" lon="5.506784906610847">
        <ele>343.0703125</ele>
      </trkpt>
      <trkpt lat="49.641941897571087" lon="5.505809253081679">
        <ele>340.484375</ele>
      </trkpt>
      <trkpt lat="49.641726231202483" lon="5.505151692777872">
        <ele>337.4375</ele>
      </trkpt>
      <trkpt lat="49.641173779964447" lon="5.504303276538849">
        <ele>331.45703125</ele>
      </trkpt>
      <trkpt lat="49.64107328094542" lon="5.503663318231702">
        <ele>327.65234375</ele>
      </trkpt>
      <trkpt lat="49.640947552397847" lon="5.503210863098502">
        <ele>327.40234375</ele>
      </trkpt>
      <trkpt lat="49.640875635668635" lon="5.502673499286175">
        <ele>326.88671875</ele>
      </trkpt>
      <trkpt lat="49.640785865485668" lon="5.502334116026759">
        <ele>326.5546875</ele>
      </trkpt>
      <trkpt lat="49.640785865485668" lon="5.502334116026759">
        <ele>326.5546875</ele>
      </trkpt>
      <trkpt lat="49.640678074210882" lon="5.502107888460159">
        <ele>325.609375</ele>
      </trkpt>
      <trkpt lat="49.640660053119063" lon="5.501796836033464">
        <ele>321.8828125</ele>
      </trkpt>
      <trkpt lat="49.640947552397847" lon="5.501598855480552">
        <ele>319.828125</ele>
      </trkpt>
      <trkpt lat="49.641109239310026" lon="5.501457452774048">
        <ele>319.9453125</ele>
      </trkpt>
      <trkpt lat="49.641127176582813" lon="5.501259472221136">
        <ele>320.03125</ele>
      </trkpt>
      <trkpt lat="49.641414675861597" lon="5.501711927354336">
        <ele>319.625</ele>
      </trkpt>
      <trkpt lat="49.641612321138382" lon="5.502305869013071">
        <ele>316.3515625</ele>
      </trkpt>
      <trkpt lat="49.641791945323348" lon="5.502645252272487">
        <ele>314.7734375</ele>
      </trkpt>
      <trkpt lat="49.642151277512312" lon="5.502871479839087">
        <ele>314.23828125</ele>
      </trkpt>
      <trkpt lat="49.642636338248849" lon="5.502899726852775">
        <ele>317.23046875</ele>
      </trkpt>
      <trkpt lat="49.643139420077205" lon="5.502786654978991">
        <ele>319.8125</ele>
      </trkpt>
      <trkpt lat="49.643732272088528" lon="5.502701830118895">
        <ele>317.57421875</ele>
      </trkpt>
      <trkpt lat="49.643840147182345" lon="5.502701830118895">
        <ele>327.18359375</ele>
      </trkpt>
      <trkpt lat="49.644379103556275" lon="5.502362446859479">
        <ele>320.8984375</ele>
      </trkpt>
      <trkpt lat="49.644864164292812" lon="5.501485699787736">
        <ele>319.76953125</ele>
      </trkpt>
      <trkpt lat="49.645133642479777" lon="5.501118069514632">
        <ele>320.5703125</ele>
      </trkpt>
      <trkpt lat="49.646319430321455" lon="5.499902023002505">
        <ele>315.1171875</ele>
      </trkpt>
      <trkpt lat="49.646103847771883" lon="5.49933641217649">
        <ele>316.30859375</ele>
      </trkpt>
      <trkpt lat="49.646319430321455" lon="5.498968698084354">
        <ele>326.12109375</ele>
      </trkpt>
      <trkpt lat="49.64651707559824" lon="5.498657645657659">
        <ele>328.640625</ele>
      </trkpt>
      <trkpt lat="49.646409284323454" lon="5.497667826712132">
        <ele>328.4765625</ele>
      </trkpt>
      <trkpt lat="49.646301493048668" lon="5.497102215886116">
        <ele>327.71484375</ele>
      </trkpt>
      <trkpt lat="49.646175764501095" lon="5.496706254780293">
        <ele>331.53515625</ele>
      </trkpt>
      <trkpt lat="49.645906202495098" lon="5.496140643954277">
        <ele>333.37890625</ele>
      </trkpt>
      <trkpt lat="49.645600765943527" lon="5.495575033128262">
        <ele>335.1875</ele>
      </trkpt>
      <trkpt lat="49.645151663571596" lon="5.494698286056519">
        <ele>335.9609375</ele>
      </trkpt>
      <trkpt lat="49.644702477380633" lon="5.493934694677591">
        <ele>338.1640625</ele>
      </trkpt>
      <trkpt lat="49.644432999193668" lon="5.493114609271288">
        <ele>339.3046875</ele>
      </trkpt>
      <trkpt lat="49.644091604277492" lon="5.492718648165464">
        <ele>338.23828125</ele>
      </trkpt>
      <trkpt lat="49.643516689538956" lon="5.49243651330471">
        <ele>341.703125</ele>
      </trkpt>
      <trkpt lat="49.6430136077106" lon="5.492238532751799">
        <ele>342.1484375</ele>
      </trkpt>
      <trkpt lat="49.643067503347993" lon="5.492012305185199">
        <ele>341.6328125</ele>
      </trkpt>
      <trkpt lat="49.643390877172351" lon="5.491814324632287">
        <ele>341.3125</ele>
      </trkpt>
      <trkpt lat="49.644163437187672" lon="5.491559850051999">
        <ele>342.25390625</ele>
      </trkpt>
      <trkpt lat="49.645115621387959" lon="5.491475025191903">
        <ele>342.4453125</ele>
      </trkpt>
      <trkpt lat="49.646696699783206" lon="5.491559850051999">
        <ele>343.46875</ele>
      </trkpt>
      <trkpt lat="49.647864466533065" lon="5.489580128341913">
        <ele>357.57421875</ele>
      </trkpt>
      <trkpt lat="49.648385569453239" lon="5.489014517515898">
        <ele>358</ele>
      </trkpt>
      <trkpt lat="49.648888483643532" lon="5.488576730713248">
        <ele>355.609375</ele>
      </trkpt>
      <trkpt lat="49.649791298434138" lon="5.487516168504953">
        <ele>355.875</ele>
      </trkpt>
      <trkpt lat="49.650227157399058" lon="5.48702834174037">
        <ele>357.98046875</ele>
      </trkpt>
      <trkpt lat="49.650051975622773" lon="5.486243544146419">
        <ele>359.90625</ele>
      </trkpt>
      <trkpt lat="49.649607315659523" lon="5.484928507357836">
        <ele>361.0625</ele>
      </trkpt>
      <trkpt lat="49.64910876005888" lon="5.483804326504469">
        <ele>356.6171875</ele>
      </trkpt>
      <trkpt lat="49.64856980368495" lon="5.48276505433023">
        <ele>356.0390625</ele>
      </trkpt>
      <trkpt lat="49.647909561172128" lon="5.481704492121935">
        <ele>348.84765625</ele>
      </trkpt>
      <trkpt lat="49.647437911480665" lon="5.481195459142327">
        <ele>345.421875</ele>
      </trkpt>
      <trkpt lat="49.64707413688302" lon="5.48079245723784">
        <ele>340.6875</ele>
      </trkpt>
      <trkpt lat="49.646642887964845" lon="5.480453073978424">
        <ele>333.25390625</ele>
      </trkpt>
      <trkpt lat="49.646076941862702" lon="5.480474280193448">
        <ele>323.55859375</ele>
      </trkpt>
      <trkpt lat="49.645820958539844" lon="5.479901544749737">
        <ele>315.59375</ele>
      </trkpt>
      <trkpt lat="49.645457100123167" lon="5.479541039094329">
        <ele>315.4609375</ele>
      </trkpt>
      <trkpt lat="49.64497203938663" lon="5.479248175397515">
        <ele>325.90234375</ele>
      </trkpt>
      <trkpt lat="49.644675571471453" lon="5.479439031332731">
        <ele>327.76953125</ele>
      </trkpt>
      <trkpt lat="49.644163521006703" lon="5.480139004066587">
        <ele>326.4296875</ele>
      </trkpt>
      <trkpt lat="49.643947938457131" lon="5.480308653786779">
        <ele>328.14453125</ele>
      </trkpt>
      <trkpt lat="49.643206894397736" lon="5.48052079975605">
        <ele>337.87890625</ele>
      </trkpt>
      <trkpt lat="49.642937332391739" lon="5.480245035141707">
        <ele>343.140625</ele>
      </trkpt>
      <trkpt lat="49.642822332680225" lon="5.479261670261622">
        <ele>347.05859375</ele>
      </trkpt>
      <trkpt lat="49.64274144731462" lon="5.479176845401526">
        <ele>347.6328125</ele>
      </trkpt>
      <trkpt lat="49.64259778149426" lon="5.479671796783805">
        <ele>347.9453125</ele>
      </trkpt>
      <trkpt lat="49.642507927492261" lon="5.480124251917005">
        <ele>348.20703125</ele>
      </trkpt>
      <trkpt lat="49.642346240580082" lon="5.480788853019476">
        <ele>348.7265625</ele>
      </trkpt>
      <trkpt lat="49.642301313579082" lon="5.481297969818115">
        <ele>350.6796875</ele>
      </trkpt>
      <trkpt lat="49.642256386578083" lon="5.481609022244811">
        <ele>352.73828125</ele>
      </trkpt>
      <trkpt lat="49.642139626666903" lon="5.482004983350635">
        <ele>354.06640625</ele>
      </trkpt>
      <trkpt lat="49.642139626666903" lon="5.482514016330242">
        <ele>354.96875</ele>
      </trkpt>
      <trkpt lat="49.642256386578083" lon="5.482952389866114">
        <ele>354.37109375</ele>
      </trkpt>
      <trkpt lat="49.642480937764049" lon="5.483574578538537">
        <ele>349</ele>
      </trkpt>
      <trkpt lat="49.642723510041833" lon="5.484225014224649">
        <ele>347.171875</ele>
      </trkpt>
      <trkpt lat="49.642777405679226" lon="5.484564397484064">
        <ele>342.75390625</ele>
      </trkpt>
      <trkpt lat="49.642750415951014" lon="5.484917862340808">
        <ele>338.29296875</ele>
      </trkpt>
      <trkpt lat="49.642633656039834" lon="5.484917862340808">
        <ele>337.23046875</ele>
      </trkpt>
      <trkpt lat="49.642436010763049" lon="5.484790625050664">
        <ele>337.94921875</ele>
      </trkpt>
      <trkpt lat="49.642067709937692" lon="5.484578479081392">
        <ele>340.12890625</ele>
      </trkpt>
      <trkpt lat="49.641816169023514" lon="5.484521985054016">
        <ele>339.140625</ele>
      </trkpt>
      <trkpt lat="49.641411993652582" lon="5.484465407207608">
        <ele>336.8203125</ele>
      </trkpt>
      <trkpt lat="49.640890974551439" lon="5.484536066651344">
        <ele>330.2890625</ele>
      </trkpt>
      <trkpt lat="49.640468694269657" lon="5.484564397484064">
        <ele>325.93359375</ele>
      </trkpt>
      <trkpt lat="49.640199216082692" lon="5.484536066651344">
        <ele>324.77734375</ele>
      </trkpt>
      <trkpt lat="49.6401003934443" lon="5.48464922234416">
        <ele>320.9375</ele>
      </trkpt>
      <trkpt lat="49.639851870015264" lon="5.484235072508454">
        <ele>311.640625</ele>
      </trkpt>
      <trkpt lat="49.639456579461694" lon="5.484065422788262">
        <ele>310.2578125</ele>
      </trkpt>
      <trkpt lat="49.639133205637336" lon="5.48389577306807">
        <ele>310.51953125</ele>
      </trkpt>
      <trkpt lat="49.638845790177584" lon="5.483669461682439">
        <ele>310.140625</ele>
      </trkpt>
      <trkpt lat="49.638324771076441" lon="5.483273584395647">
        <ele>306.73046875</ele>
      </trkpt>
      <trkpt lat="49.637803751975298" lon="5.482849376276135">
        <ele>309.5703125</ele>
      </trkpt>
      <trkpt lat="49.637174857780337" lon="5.482792798429728">
        <ele>307</ele>
      </trkpt>
      <trkpt lat="49.636582005769014" lon="5.482651395723224">
        <ele>303.72265625</ele>
      </trkpt>
      <trkpt lat="49.636025028303266" lon="5.482453415170312">
        <ele>302.1875</ele>
      </trkpt>
      <trkpt lat="49.635701654478908" lon="5.482227187603712">
        <ele>302.0859375</ele>
      </trkpt>
      <trkpt lat="49.635342322289944" lon="5.482000876218081">
        <ele>302.34375</ele>
      </trkpt>
      <trkpt lat="49.635036885738373" lon="5.481831226497889">
        <ele>299.6015625</ele>
      </trkpt>
      <trkpt lat="49.634695574641228" lon="5.481746401637793">
        <ele>297.85546875</ele>
      </trkpt>
      <trkpt lat="49.634482674300671" lon="5.481479270383716">
        <ele>296.078125</ele>
      </trkpt>
      <trkpt lat="49.634413523599505" lon="5.481093199923635">
        <ele>298.859375</ele>
      </trkpt>
      <trkpt lat="49.634338086470962" lon="5.480905110016465">
        <ele>315.5234375</ele>
      </trkpt>
      <trkpt lat="49.634117977693677" lon="5.480806203559041">
        <ele>319.29296875</ele>
      </trkpt>
      <trkpt lat="49.633909184485674" lon="5.480760606005788">
        <ele>321.65625</ele>
      </trkpt>
      <trkpt lat="49.633828299120069" lon="5.480788853019476">
        <ele>321.91015625</ele>
      </trkpt>
      <trkpt lat="49.633774403482676" lon="5.481114070862532">
        <ele>316.95703125</ele>
      </trkpt>
      <trkpt lat="49.633585726842284" lon="5.481340382248163">
        <ele>313.91015625</ele>
      </trkpt>
      <trkpt lat="49.633408030495048" lon="5.481524197384715">
        <ele>311.34765625</ele>
      </trkpt>
      <trkpt lat="49.633264364674687" lon="5.481792837381363">
        <ele>306.1640625</ele>
      </trkpt>
      <trkpt lat="49.632887011393905" lon="5.481920074671507">
        <ele>306.32421875</ele>
      </trkpt>
      <trkpt lat="49.632437909021974" lon="5.482188798487186">
        <ele>305.59765625</ele>
      </trkpt>
      <trkpt lat="49.632168347015977" lon="5.482471603900194">
        <ele>301.8515625</ele>
      </trkpt>
      <trkpt lat="49.631737181916833" lon="5.48279682174325">
        <ele>299.9921875</ele>
      </trkpt>
      <trkpt lat="49.630639990791678" lon="5.483079627156258">
        <ele>299.81640625</ele>
      </trkpt>
      <trkpt lat="49.629651848226786" lon="5.48300888389349">
        <ele>300.8828125</ele>
      </trkpt>
      <trkpt lat="49.628810053691268" lon="5.482924059033394">
        <ele>301.8828125</ele>
      </trkpt>
      <trkpt lat="49.628522554412484" lon="5.482938224449754">
        <ele>303.34375</ele>
      </trkpt>
      <trkpt lat="49.628106141462922" lon="5.483192782849073">
        <ele>301.3125</ele>
      </trkpt>
      <trkpt lat="49.627602472901344" lon="5.483899796381593">
        <ele>296.34375</ele>
      </trkpt>
      <trkpt lat="49.627099391072989" lon="5.484606809914112">
        <ele>292.96875</ele>
      </trkpt>
      <trkpt lat="49.626808119937778" lon="5.48513000831008">
        <ele>291.77734375</ele>
      </trkpt>
      <trkpt lat="49.626646433025599" lon="5.485497638583183">
        <ele>291.10546875</ele>
      </trkpt>
      <trkpt lat="49.626358933746815" lon="5.486261229962111">
        <ele>284.79296875</ele>
      </trkpt>
      <trkpt lat="49.626026591286063" lon="5.486600613221526">
        <ele>283.859375</ele>
      </trkpt>
      <trkpt lat="49.625837914645672" lon="5.48671368509531">
        <ele>284.87890625</ele>
      </trkpt>
      <trkpt lat="49.625469613820314" lon="5.486614694818854">
        <ele>292.72265625</ele>
      </trkpt>
      <trkpt lat="49.625146239995956" lon="5.48648745752871">
        <ele>299.19140625</ele>
      </trkpt>
      <trkpt lat="49.624870307743549" lon="5.486063249409199">
        <ele>306.52734375</ele>
      </trkpt>
      <trkpt lat="49.624439142644405" lon="5.485907681286335">
        <ele>309.296875</ele>
      </trkpt>
      <trkpt lat="49.624193385243416" lon="5.485738031566143">
        <ele>310.95703125</ele>
      </trkpt>
      <trkpt lat="49.624031698331237" lon="5.485426895320416">
        <ele>313.5625</ele>
      </trkpt>
      <trkpt lat="49.623950812965631" lon="5.485087595880032">
        <ele>316.23828125</ele>
      </trkpt>
      <trkpt lat="49.624067572876811" lon="5.484592644497752">
        <ele>317.46484375</ele>
      </trkpt>
      <trkpt lat="49.624256249517202" lon="5.484225014224649">
        <ele>317.66796875</ele>
      </trkpt>
      <trkpt lat="49.624337134882808" lon="5.483843218535185">
        <ele>318.1015625</ele>
      </trkpt>
      <trkpt lat="49.624283239245415" lon="5.483475588262081">
        <ele>318.8984375</ele>
      </trkpt>
      <trkpt lat="49.624597644433379" lon="5.483206864446402">
        <ele>318.4296875</ele>
      </trkpt>
      <trkpt lat="49.625064767897129" lon="5.482924059033394">
        <ele>318.89453125</ele>
      </trkpt>
      <trkpt lat="49.625352183356881" lon="5.482598841190338">
        <ele>320.02734375</ele>
      </trkpt>
      <trkpt lat="49.625594755634665" lon="5.482245376333594">
        <ele>321.8828125</ele>
      </trkpt>
      <trkpt lat="49.62586423382163" lon="5.482004983350635">
        <ele>324.17578125</ele>
      </trkpt>
      <trkpt lat="49.626250555738807" lon="5.481821168214083">
        <ele>326.7109375</ele>
      </trkpt>
      <trkpt lat="49.626600835472345" lon="5.481637269258499">
        <ele>328.37890625</ele>
      </trkpt>
      <trkpt lat="49.626960167661309" lon="5.481340382248163">
        <ele>328.64453125</ele>
      </trkpt>
      <trkpt lat="49.627067958936095" lon="5.481213061138988">
        <ele>328.5859375</ele>
      </trkpt>
      <trkpt lat="49.627130907028913" lon="5.481026563793421">
        <ele>328.28125</ele>
      </trkpt>
      <trkpt lat="49.626897303387523" lon="5.480687180534005">
        <ele>326.984375</ele>
      </trkpt>
      <trkpt lat="49.62677157483995" lon="5.48014990054071">
        <ele>324.4921875</ele>
      </trkpt>
      <trkpt lat="49.626537971198559" lon="5.479244906455278">
        <ele>320.67578125</ele>
      </trkpt>
      <trkpt lat="49.62637628428638" lon="5.478339912369847">
        <ele>316.97265625</ele>
      </trkpt>
      <trkpt lat="49.626196660101414" lon="5.477463165298104">
        <ele>313.40625</ele>
      </trkpt>
      <trkpt lat="49.626142764464021" lon="5.476812729611993">
        <ele>312.46484375</ele>
      </trkpt>
      <trkpt lat="49.625801369547844" lon="5.476473346352577">
        <ele>309.76953125</ele>
      </trkpt>
      <trkpt lat="49.625657619908452" lon="5.476049138233066">
        <ele>307.3671875</ele>
      </trkpt>
      <trkpt lat="49.625424100086093" lon="5.475540105253458">
        <ele>303.7109375</ele>
      </trkpt>
      <trkpt lat="49.62497491389513" lon="5.47525729984045">
        <ele>296.9921875</ele>
      </trkpt>
      <trkpt lat="49.62457962334156" lon="5.475228969007731">
        <ele>293.9453125</ele>
      </trkpt>
      <trkpt lat="49.624795289710164" lon="5.474917916581035">
        <ele>293.86328125</ele>
      </trkpt>
      <trkpt lat="49.624867122620344" lon="5.473928097635508">
        <ele>299.109375</ele>
      </trkpt>
      <trkpt lat="49.624723372980952" lon="5.472740298137069">
        <ele>301.95703125</ele>
      </trkpt>
      <trkpt lat="49.624633518978953" lon="5.471863551065326">
        <ele>302.6015625</ele>
      </trkpt>
      <trkpt lat="49.624525727704167" lon="5.471637323498726">
        <ele>303.28515625</ele>
      </trkpt>
      <trkpt lat="49.624759331345558" lon="5.47107171267271">
        <ele>301.7421875</ele>
      </trkpt>
      <trkpt lat="49.625298287719488" lon="5.470279874280095">
        <ele>308.13671875</ele>
      </trkpt>
      <trkpt lat="49.625621745362878" lon="5.469855666160584">
        <ele>309.66796875</ele>
      </trkpt>
      <trkpt lat="49.625891223549843" lon="5.469346549361944">
        <ele>312.84375</ele>
      </trkpt>
      <trkpt lat="49.626070847734809" lon="5.468809269368649">
        <ele>314.28515625</ele>
      </trkpt>
      <trkpt lat="49.626466138288379" lon="5.468271905556321">
        <ele>313.671875</ele>
      </trkpt>
      <trkpt lat="49.626807449385524" lon="5.468045677989721">
        <ele>317.3671875</ele>
      </trkpt>
      <trkpt lat="49.627130907028913" lon="5.467678047716618">
        <ele>319.0859375</ele>
      </trkpt>
      <trkpt lat="49.627274572849274" lon="5.467678047716618">
        <ele>319.70703125</ele>
      </trkpt>
      <trkpt lat="49.62761596776545" lon="5.468158749863505">
        <ele>323.48828125</ele>
      </trkpt>
      <trkpt lat="49.627777654677629" lon="5.468187080696225">
        <ele>324.55859375</ele>
      </trkpt>
      <trkpt lat="49.628280736505985" lon="5.468837516382337">
        <ele>327.4453125</ele>
      </trkpt>
      <trkpt lat="49.628658005967736" lon="5.469374880194664">
        <ele>326.77734375</ele>
      </trkpt>
      <trkpt lat="49.6290173381567" lon="5.470025315880776">
        <ele>324.1015625</ele>
      </trkpt>
      <trkpt lat="49.629448503255844" lon="5.470675751566887">
        <ele>330.05859375</ele>
      </trkpt>
      <trkpt lat="49.629825856536627" lon="5.471015134826303">
        <ele>334.44921875</ele>
      </trkpt>
      <trkpt lat="49.630257021635771" lon="5.47107171267271">
        <ele>338.734375</ele>
      </trkpt>
      <trkpt lat="49.630310917273164" lon="5.470845485106111">
        <ele>339.91015625</ele>
      </trkpt>
      <trkpt lat="49.630598332732916" lon="5.469997068867087">
        <ele>343.01953125</ele>
      </trkpt>
      <trkpt lat="49.631137372925878" lon="5.468583041802049">
        <ele>341.921875</ele>
      </trkpt>
      <trkpt lat="49.631550600752234" lon="5.467480067163706">
        <ele>335.7265625</ele>
      </trkpt>
      <trkpt lat="49.631676329299808" lon="5.466773053631187">
        <ele>331.84765625</ele>
      </trkpt>
      <trkpt lat="49.631838016211987" lon="5.466179111972451">
        <ele>329.140625</ele>
      </trkpt>
      <trkpt lat="49.632269265130162" lon="5.465415520593524">
        <ele>327.48828125</ele>
      </trkpt>
      <trkpt lat="49.632309665903449" lon="5.465370593592525">
        <ele>327.4140625</ele>
      </trkpt>
      <trkpt lat="49.631016086786985" lon="5.464691827073693">
        <ele>329.53515625</ele>
      </trkpt>
      <trkpt lat="49.632174884900451" lon="5.46431003138423">
        <ele>324.92578125</ele>
      </trkpt>
      <trkpt lat="49.632579144090414" lon="5.463758585974574">
        <ele>324.4921875</ele>
      </trkpt>
      <trkpt lat="49.632552238181233" lon="5.462867757305503">
        <ele>325.15234375</ele>
      </trkpt>
      <trkpt lat="49.632740831002593" lon="5.461255749687553">
        <ele>321.9765625</ele>
      </trkpt>
      <trkpt lat="49.632794726639986" lon="5.460195187479258">
        <ele>320.828125</ele>
      </trkpt>
      <trkpt lat="49.632579144090414" lon="5.459304358810186">
        <ele>317.82421875</ele>
      </trkpt>
      <trkpt lat="49.632444363087416" lon="5.458922563120723">
        <ele>317.8046875</ele>
      </trkpt>
      <trkpt lat="49.631824605166912" lon="5.458243796601892">
        <ele>317.36328125</ele>
      </trkpt>
      <trkpt lat="49.631582032889128" lon="5.45781958848238">
        <ele>315.265625</ele>
      </trkpt>
      <trkpt lat="49.631150867789984" lon="5.45714090578258">
        <ele>312.34375</ele>
      </trkpt>
      <trkpt lat="49.630638817325234" lon="5.456759110093117">
        <ele>310.5390625</ele>
      </trkpt>
      <trkpt lat="49.631096888333559" lon="5.455443989485502">
        <ele>308.3203125</ele>
      </trkpt>
      <trkpt lat="49.631635928526521" lon="5.454171365126967">
        <ele>307.2578125</ele>
      </trkpt>
      <trkpt lat="49.632094083353877" lon="5.452771503478289">
        <ele>307.984375</ele>
      </trkpt>
      <trkpt lat="49.632713925093412" lon="5.451710941269994">
        <ele>304.02734375</ele>
      </trkpt>
      <trkpt lat="49.632902517914772" lon="5.451413970440626">
        <ele>302.00390625</ele>
      </trkpt>
      <trkpt lat="49.632633039727807" lon="5.450141346082091">
        <ele>305.6171875</ele>
      </trkpt>
      <trkpt lat="49.631905406713486" lon="5.448020305484533">
        <ele>318.14453125</ele>
      </trkpt>
      <trkpt lat="49.631420345976949" lon="5.446917330846191">
        <ele>318.56640625</ele>
      </trkpt>
      <trkpt lat="49.630800504237413" lon="5.446111327037215">
        <ele>320.39453125</ele>
      </trkpt>
      <trkpt lat="49.630153672769666" lon="5.44505076482892">
        <ele>327.34375</ele>
      </trkpt>
      <trkpt lat="49.63004588149488" lon="5.444626556709409">
        <ele>330.44921875</ele>
      </trkpt>
      <trkpt lat="49.631016086786985" lon="5.445135673508048">
        <ele>326.28125</ele>
      </trkpt>
      <trkpt lat="49.631635928526521" lon="5.445474972948432">
        <ele>325.01171875</ele>
      </trkpt>
      <trkpt lat="49.632129957899451" lon="5.445757945999503">
        <ele>326.171875</ele>
      </trkpt>
      <trkpt lat="49.632633039727807" lon="5.446040751412511">
        <ele>325.3515625</ele>
      </trkpt>
      <trkpt lat="49.632561122998595" lon="5.445277243852615">
        <ele>323.85546875</ele>
      </trkpt>
      <trkpt lat="49.632579144090414" lon="5.444966107606888">
        <ele>322.9140625</ele>
      </trkpt>
      <trkpt lat="49.633243829011917" lon="5.444145938381553">
        <ele>318.3359375</ele>
      </trkpt>
      <trkpt lat="49.633657056838274" lon="5.443467255681753">
        <ele>315.5546875</ele>
      </trkpt>
      <trkpt lat="49.633782869204879" lon="5.442477436736226">
        <ele>310.96875</ele>
      </trkpt>
      <trkpt lat="49.634034410119057" lon="5.441770423203707">
        <ele>303.234375</ele>
      </trkpt>
      <trkpt lat="49.634285867214203" lon="5.441431039944291">
        <ele>301.984375</ele>
      </trkpt>
      <trkpt lat="49.634609324857593" lon="5.440639117732644">
        <ele>296.63671875</ele>
      </trkpt>
      <trkpt lat="49.634914761409163" lon="5.440101837739348">
        <ele>290.8359375</ele>
      </trkpt>
      <trkpt lat="49.63509438559413" lon="5.439903857186437">
        <ele>287.94921875</ele>
      </trkpt>
      <trkpt lat="49.6353998221457" lon="5.439309915527701">
        <ele>280.93359375</ele>
      </trkpt>
      <trkpt lat="49.635579446330667" lon="5.439140265807509">
        <ele>277.24609375</ele>
      </trkpt>
      <trkpt lat="49.63532798923552" lon="5.438489830121398">
        <ele>282.25390625</ele>
      </trkpt>
      <trkpt lat="49.635076448321342" lon="5.437613083049655">
        <ele>283.22265625</ele>
      </trkpt>
      <trkpt lat="49.634842844679952" lon="5.437273699790239">
        <ele>285.109375</ele>
      </trkpt>
      <trkpt lat="49.6345554292202" lon="5.437104050070047">
        <ele>288.0546875</ele>
      </trkpt>
      <trkpt lat="49.634968657046556" lon="5.436623264104128">
        <ele>282.15234375</ele>
      </trkpt>
      <trkpt lat="49.634968657046556" lon="5.435944497585297">
        <ele>281.34765625</ele>
      </trkpt>
      <trkpt lat="49.634824907407165" lon="5.435237484052777">
        <ele>277.046875</ele>
      </trkpt>
      <trkpt lat="49.63486086577177" lon="5.434530470520258">
        <ele>273.9921875</ele>
      </trkpt>
      <trkpt lat="49.634914761409163" lon="5.434078015387058">
        <ele>273.41796875</ele>
      </trkpt>
      <trkpt lat="49.634501533582807" lon="5.433088196441531">
        <ele>274.68359375</ele>
      </trkpt>
      <trkpt lat="49.634124180302024" lon="5.432550832629204">
        <ele>272.62109375</ele>
      </trkpt>
      <trkpt lat="49.633854702115059" lon="5.43215487152338">
        <ele>271.43359375</ele>
      </trkpt>
      <trkpt lat="49.633495369926095" lon="5.431730663403869">
        <ele>274.50390625</ele>
      </trkpt>
      <trkpt lat="49.633369641378522" lon="5.431221630424261">
        <ele>273.0390625</ele>
      </trkpt>
      <trkpt lat="49.633010309189558" lon="5.430203480646014">
        <ele>272.27734375</ele>
      </trkpt>
      <trkpt lat="49.632722809910774" lon="5.429411642253399">
        <ele>274.078125</ele>
      </trkpt>
      <trkpt lat="49.632417373359203" lon="5.428795069456101">
        <ele>269.83203125</ele>
      </trkpt>
      <trkpt lat="49.632040103897452" lon="5.428427355363965">
        <ele>266.671875</ele>
      </trkpt>
      <trkpt lat="49.631626876071095" lon="5.428087972104549">
        <ele>268.2890625</ele>
      </trkpt>
      <trkpt lat="49.631213648244739" lon="5.427607269957662">
        <ele>265.62109375</ele>
      </trkpt>
      <trkpt lat="49.630854316055775" lon="5.42718306183815">
        <ele>264.00390625</ele>
      </trkpt>
      <trkpt lat="49.630602775141597" lon="5.426673945039511">
        <ele>257.1875</ele>
      </trkpt>
      <trkpt lat="49.630369255319238" lon="5.426306314766407">
        <ele>260.46484375</ele>
      </trkpt>
      <trkpt lat="49.63051300495863" lon="5.425966931506991">
        <ele>259.7734375</ele>
      </trkpt>
      <trkpt lat="49.630872337147593" lon="5.425486145541072">
        <ele>264.66015625</ele>
      </trkpt>
      <trkpt lat="49.631034024059772" lon="5.424994044005871">
        <ele>268.5703125</ele>
      </trkpt>
      <trkpt lat="49.630962107330561" lon="5.423919400200248">
        <ele>260.98828125</ele>
      </trkpt>
      <trkpt lat="49.630962107330561" lon="5.423523439094424">
        <ele>259.7265625</ele>
      </trkpt>
      <trkpt lat="49.63112379424274" lon="5.423184055835009">
        <ele>260.18359375</ele>
      </trkpt>
      <trkpt lat="49.631213648244739" lon="5.423240633681417">
        <ele>260.72265625</ele>
      </trkpt>
      <trkpt lat="49.631447251886129" lon="5.42360826395452">
        <ele>263.91796875</ele>
      </trkpt>
      <trkpt lat="49.632112020626664" lon="5.424032472074032">
        <ele>275.921875</ele>
      </trkpt>
      <trkpt lat="49.632740831002593" lon="5.424569835886359">
        <ele>286.3515625</ele>
      </trkpt>
      <trkpt lat="49.633100163191557" lon="5.424852641299367">
        <ele>292.015625</ele>
      </trkpt>
      <trkpt lat="49.633261850103736" lon="5.425078868865967">
        <ele>294.46875</ele>
      </trkpt>
      <trkpt lat="49.638993060216308" lon="5.433647939935327">
        <ele>324.23828125</ele>
      </trkpt>
      <trkpt lat="49.639316434040666" lon="5.434185303747654">
        <ele>324.84765625</ele>
      </trkpt>
      <trkpt lat="49.639783557504416" lon="5.434864070266485">
        <ele>327.23828125</ele>
      </trkpt>
      <trkpt lat="49.64041312225163" lon="5.435769064351916">
        <ele>328.203125</ele>
      </trkpt>
      <trkpt lat="49.640556871891022" lon="5.436306344345212">
        <ele>328.25</ele>
      </trkpt>
      <trkpt lat="49.640754517167807" lon="5.437522474676371">
        <ele>329.60546875</ele>
      </trkpt>
      <trkpt lat="49.640844371169806" lon="5.43800326064229">
        <ele>330.90625</ele>
      </trkpt>
      <trkpt lat="49.641059953719378" lon="5.439077904447913">
        <ele>330.53515625</ele>
      </trkpt>
      <trkpt lat="49.641312249004841" lon="5.440633334219456">
        <ele>331.5703125</ele>
      </trkpt>
      <trkpt lat="49.641563706099987" lon="5.44193428941071">
        <ele>331.6640625</ele>
      </trkpt>
      <trkpt lat="49.641833268105984" lon="5.442556478083134">
        <ele>329.48046875</ele>
      </trkpt>
      <trkpt lat="49.642318328842521" lon="5.443546297028661">
        <ele>329.0546875</ele>
      </trkpt>
      <trkpt lat="49.642641702666879" lon="5.444140154868364">
        <ele>327.4609375</ele>
      </trkpt>
      <trkpt lat="49.643019055947661" lon="5.445016901940107">
        <ele>333.4375</ele>
      </trkpt>
      <trkpt lat="49.643414262682199" lon="5.445752162486315">
        <ele>335.48828125</ele>
      </trkpt>
      <trkpt lat="49.643504116684198" lon="5.446063298732042">
        <ele>336.39453125</ele>
      </trkpt>
      <trkpt lat="49.643751801922917" lon="5.446509383618832">
        <ele>335.80078125</ele>
      </trkpt>
      <trkpt lat="49.644048186019063" lon="5.446954797953367">
        <ele>335.3828125</ele>
      </trkpt>
      <trkpt lat="49.644236862659454" lon="5.447463830932975">
        <ele>333.05078125</ele>
      </trkpt>
      <trkpt lat="49.644452445209026" lon="5.447866832837462">
        <ele>330.7109375</ele>
      </trkpt>
      <trkpt lat="49.644654616713524" lon="5.448333453387022">
        <ele>326.34375</ele>
      </trkpt>
      <trkpt lat="49.644937589764595" lon="5.448863776400685">
        <ele>321.125</ele>
      </trkpt>
      <trkpt lat="49.645193573087454" lon="5.449330396950245">
        <ele>318.26171875</ele>
      </trkpt>
      <trkpt lat="49.646030170843005" lon="5.450920863077045">
        <ele>346.09375</ele>
      </trkpt>
      <trkpt lat="49.646879089996219" lon="5.451896600425243">
        <ele>343.47265625</ele>
      </trkpt>
      <trkpt lat="49.647647123783827" lon="5.452405633404851">
        <ele>344.16796875</ele>
      </trkpt>
      <trkpt lat="49.648415157571435" lon="5.452851047739387">
        <ele>345.92578125</ele>
      </trkpt>
      <trkpt lat="49.649210181087255" lon="5.453444989398122">
        <ele>348.34765625</ele>
      </trkpt>
      <trkpt lat="49.650234282016754" lon="5.454335818067193">
        <ele>350.19921875</ele>
      </trkpt>
      <trkpt lat="49.651123601943254" lon="5.454950882121921">
        <ele>351.046875</ele>
      </trkpt>
      <trkpt lat="49.651568261906505" lon="5.455438792705536">
        <ele>352.70703125</ele>
      </trkpt>
      <trkpt lat="49.652134208008647" lon="5.456796241924167">
        <ele>355.953125</ele>
      </trkpt>
      <trkpt lat="49.652578867971897" lon="5.457475008442998">
        <ele>354.25</ele>
      </trkpt>
      <trkpt lat="49.653104413300753" lon="5.458599189296365">
        <ele>354.42578125</ele>
      </trkpt>
      <trkpt lat="49.653441281989217" lon="5.459553636610508">
        <ele>352.015625</ele>
      </trkpt>
      <trkpt lat="49.653858952224255" lon="5.460296021774411">
        <ele>348.01953125</ele>
      </trkpt>
      <trkpt lat="49.65426036156714" lon="5.461142091080546">
        <ele>345.4921875</ele>
      </trkpt>
      <trkpt lat="49.654686078429222" lon="5.462047085165978">
        <ele>345.16015625</ele>
      </trkpt>
      <trkpt lat="49.654865702614188" lon="5.46199050731957">
        <ele>345.265625</ele>
      </trkpt>
      <trkpt lat="49.655692158266902" lon="5.460972441360354">
        <ele>346.70703125</ele>
      </trkpt>
      <trkpt lat="49.656810723245144" lon="5.459710881114006">
        <ele>348.55859375</ele>
      </trkpt>
      <trkpt lat="49.657996511086822" lon="5.458438256755471">
        <ele>343.3828125</ele>
      </trkpt>
      <trkpt lat="49.659601813182235" lon="5.459541147574782">
        <ele>347.203125</ele>
      </trkpt>
      <trkpt lat="49.659386146813631" lon="5.46007851138711">
        <ele>345.96875</ele>
      </trkpt>
      <trkpt lat="49.659314313903451" lon="5.460502719506621">
        <ele>346.94921875</ele>
      </trkpt>
      <trkpt lat="49.660063404589891" lon="5.461888499557972">
        <ele>348.28515625</ele>
      </trkpt>
      <trkpt lat="49.660728173330426" lon="5.462878318503499">
        <ele>348.89453125</ele>
      </trkpt>
      <trkpt lat="49.661015588790178" lon="5.46400954015553">
        <ele>353.95703125</ele>
      </trkpt>
      <trkpt lat="49.661285150796175" lon="5.465338742360473">
        <ele>354.1953125</ele>
      </trkpt>
      <trkpt lat="49.661788903176785" lon="5.467431535944343">
        <ele>347.45703125</ele>
      </trkpt>
      <trkpt lat="49.662112277001143" lon="5.468760738149285">
        <ele>350.9453125</ele>
      </trkpt>
      <trkpt lat="49.662525504827499" lon="5.469100121408701">
        <ele>351.5234375</ele>
      </trkpt>
      <trkpt lat="49.662902858108282" lon="5.47003336250782">
        <ele>352.23828125</ele>
      </trkpt>
      <trkpt lat="49.66329806484282" lon="5.471079759299755">
        <ele>353.296875</ele>
      </trkpt>
      <trkpt lat="49.663921426981688" lon="5.471786772832274">
        <ele>354.28515625</ele>
      </trkpt>
      <trkpt lat="49.66498140245676" lon="5.472635189071298">
        <ele>355.39453125</ele>
      </trkpt>
      <trkpt lat="49.665461014956236" lon="5.472946325317025">
        <ele>355.6796875</ele>
      </trkpt>
      <trkpt lat="49.665317265316844" lon="5.473653338849545">
        <ele>357.1484375</ele>
      </trkpt>
      <trkpt lat="49.665227495133877" lon="5.474162371829152">
        <ele>357.99609375</ele>
      </trkpt>
      <trkpt lat="49.664796246215701" lon="5.475434996187687">
        <ele>357.48828125</ele>
      </trkpt>
      <trkpt lat="49.664239352568984" lon="5.47699042595923">
        <ele>360.6953125</ele>
      </trkpt>
      <trkpt lat="49.663610458374023" lon="5.478772167116404">
        <ele>356.01171875</ele>
      </trkpt>
      <trkpt lat="49.66355656273663" lon="5.478970147669315">
        <ele>355.97265625</ele>
      </trkpt>
      <trkpt lat="49.663915894925594" lon="5.479281200096011">
        <ele>355.01953125</ele>
      </trkpt>
      <trkpt lat="49.665389182046056" lon="5.479592336341739">
        <ele>356.88671875</ele>
      </trkpt>
      <trkpt lat="49.667096743360162" lon="5.479790233075619">
        <ele>360.53125</ele>
      </trkpt>
      <trkpt lat="49.66788724064827" lon="5.479875141754746">
        <ele>365.33984375</ele>
      </trkpt>
      <trkpt lat="49.668246572837234" lon="5.480327596887946">
        <ele>367.6328125</ele>
      </trkpt>
      <trkpt lat="49.668929278850555" lon="5.480751805007458">
        <ele>370.0859375</ele>
      </trkpt>
      <trkpt lat="49.669426828622818" lon="5.480893207713962">
        <ele>371.96484375</ele>
      </trkpt>
      <trkpt lat="49.669606452807784" lon="5.481147766113281">
        <ele>372.9140625</ele>
      </trkpt>
      <trkpt lat="49.669768223538995" lon="5.483495034277439">
        <ele>372.2890625</ele>
      </trkpt>
      <trkpt lat="49.670001743361354" lon="5.485418178141117">
        <ele>374.58984375</ele>
      </trkpt>
      <trkpt lat="49.67003770172596" lon="5.486040366813541">
        <ele>374.90234375</ele>
      </trkpt>
      <trkpt lat="49.669929910451174" lon="5.486690802499652">
        <ele>374.29296875</ele>
      </trkpt>
      <trkpt lat="49.670055638998747" lon="5.488246232271195">
        <ele>369.4609375</ele>
      </trkpt>
      <trkpt lat="49.670271221548319" lon="5.489405784755945">
        <ele>370.03515625</ele>
      </trkpt>
      <trkpt lat="49.670589482411742" lon="5.491043021902442">
        <ele>371.13671875</ele>
      </trkpt>
      <trkpt lat="49.670823086053133" lon="5.491608632728458">
        <ele>372.5390625</ele>
      </trkpt>
      <trkpt lat="49.671182418242097" lon="5.492343893274665">
        <ele>373.4609375</ele>
      </trkpt>
      <trkpt lat="49.671200355514884" lon="5.492626698687673">
        <ele>373.2734375</ele>
      </trkpt>
      <trkpt lat="49.670194275677204" lon="5.494097303599119">
        <ele>368.71484375</ele>
      </trkpt>
      <trkpt lat="49.669529506936669" lon="5.494945719838142">
        <ele>365.79296875</ele>
      </trkpt>
      <trkpt lat="49.668954592198133" lon="5.495369927957654">
        <ele>361.81640625</ele>
      </trkpt>
      <trkpt lat="49.667876595631242" lon="5.49548308365047">
        <ele>358.41015625</ele>
      </trkpt>
      <trkpt lat="49.667391534894705" lon="5.495398258790374">
        <ele>357.671875</ele>
      </trkpt>
      <trkpt lat="49.666960285976529" lon="5.495426505804062">
        <ele>357.921875</ele>
      </trkpt>
      <trkpt lat="49.666475225239992" lon="5.495624486356974">
        <ele>359.21875</ele>
      </trkpt>
      <trkpt lat="49.666079934686422" lon="5.496105272322893">
        <ele>361.03515625</ele>
      </trkpt>
      <trkpt lat="49.665900310501456" lon="5.496783955022693">
        <ele>363.3203125</ele>
      </trkpt>
      <trkpt lat="49.66586435213685" lon="5.496981935575604">
        <ele>363.79296875</ele>
      </trkpt>
      <trkpt lat="49.666097955778241" lon="5.497491052374244">
        <ele>365.01171875</ele>
      </trkpt>
      <trkpt lat="49.666618974879384" lon="5.49734964966774">
        <ele>365.23046875</ele>
      </trkpt>
    </trkseg>
  </trk>

</gpx>